{"type":"FeatureCollection","division":"marathwada-2026","credit":"District boundaries (c) OpenStreetMap contributors, ODbL","features":[{"type":"Feature","properties":{"region":"latur-district-2026","name":"Latur","nameMr":"लातूर"},"geometry":{"type":"Polygon","coordinates":[[[76.2024,18.3939],[76.2246,18.3795],[76.2487,18.3747],[76.2572,18.3641],[76.2886,18.3883],[76.2852,18.3408],[76.3169,18.3299],[76.3145,18.2816],[76.3044,18.2623],[76.2937,18.2597],[76.2835,18.2494],[76.2865,18.2319],[76.3014,18.2294],[76.292,18.1952],[76.2806,18.1803],[76.2821,18.1524],[76.2758,18.1401],[76.2842,18.1266],[76.2794,18.1089],[76.2984,18.1055],[76.2959,18.0996],[76.3071,18.0946],[76.3278,18.0941],[76.3313,18.0743],[76.3715,18.089],[76.3788,18.0871],[76.3974,18.0662],[76.397,18.0544],[76.4039,18.046],[76.4277,18.0326],[76.4941,18.0234],[76.4992,18.0477],[76.5126,18.0436],[76.5111,18.0221],[76.5303,18.0212],[76.5311,18.0342],[76.5355,18.0348],[76.5477,18.0328],[76.5524,18.0249],[76.5673,18.0383],[76.5866,18.0384],[76.5974,18.0305],[76.6077,18.0355],[76.604,18.0056],[76.615,18.0002],[76.6653,17.9982],[76.681,17.9929],[76.6879,17.9695],[76.6757,17.969],[76.6732,17.9644],[76.6728,17.9481],[76.6812,17.9439],[76.6757,17.9352],[76.6748,17.918],[76.7216,17.9162],[76.735,17.9082],[76.74,17.8995],[76.7683,17.9024],[76.7738,17.8785],[76.8062,17.871],[76.8101,17.8874],[76.8326,17.8826],[76.8325,17.8933],[76.8396,17.8998],[76.8717,17.899],[76.8842,17.8943],[76.8837,17.8994],[76.8936,17.8999],[76.9004,17.9175],[76.9189,17.9164],[76.9134,17.9932],[76.9065,17.9967],[76.9057,18.0099],[76.9115,18.0147],[76.9145,18.0356],[76.9534,18.042],[76.9436,18.0463],[76.9512,18.0604],[76.944,18.0834],[76.9623,18.0906],[76.9654,18.0989],[76.9543,18.1105],[76.9305,18.1131],[76.918,18.1241],[76.9325,18.1336],[76.9215,18.1441],[76.9323,18.1605],[76.9425,18.1566],[76.9513,18.1883],[76.9914,18.1907],[76.9972,18.1664],[77.0078,18.1601],[77.0238,18.1585],[77.0236,18.1754],[77.0321,18.1775],[77.0336,18.1822],[77.0522,18.1738],[77.0531,18.1607],[77.0643,18.1518],[77.0843,18.1518],[77.0999,18.1589],[77.1095,18.1559],[77.1163,18.1694],[77.0969,18.1966],[77.1238,18.2089],[77.1403,18.2076],[77.1427,18.2169],[77.1512,18.2167],[77.1488,18.2394],[77.1599,18.2571],[77.1697,18.2609],[77.1747,18.2848],[77.1874,18.2849],[77.1979,18.2768],[77.2136,18.2808],[77.1988,18.3146],[77.2021,18.3218],[77.2116,18.3162],[77.2188,18.3256],[77.2294,18.3476],[77.2196,18.3489],[77.2254,18.3651],[77.2463,18.3701],[77.2486,18.3744],[77.2398,18.3772],[77.2334,18.388],[77.235,18.4007],[77.2416,18.4142],[77.2597,18.4136],[77.2634,18.4173],[77.2646,18.442],[77.2535,18.4532],[77.2686,18.4535],[77.2767,18.4766],[77.2509,18.4873],[77.2462,18.4991],[77.2673,18.5221],[77.2804,18.522],[77.2952,18.5489],[77.2627,18.5664],[77.2637,18.5803],[77.2685,18.5834],[77.2671,18.6118],[77.2112,18.6253],[77.2113,18.6337],[77.1972,18.6476],[77.1555,18.6472],[77.1583,18.6802],[77.1769,18.6805],[77.1912,18.6882],[77.1836,18.7006],[77.1692,18.7045],[77.1523,18.7],[77.1434,18.7138],[77.1355,18.712],[77.1339,18.6983],[77.0718,18.689],[77.0656,18.6824],[77.0448,18.684],[77.0437,18.7029],[77.0573,18.7265],[77.0538,18.7726],[77.0093,18.7671],[76.9908,18.829],[76.9066,18.8389],[76.8838,18.8364],[76.8705,18.8331],[76.8632,18.8228],[76.8534,18.8199],[76.8514,18.8105],[76.8269,18.8129],[76.8105,18.8013],[76.779,18.7957],[76.7787,18.7769],[76.7415,18.7757],[76.7366,18.7606],[76.7229,18.7481],[76.7325,18.722],[76.7336,18.7],[76.7271,18.6953],[76.7131,18.6998],[76.6974,18.6912],[76.6818,18.6917],[76.6621,18.6592],[76.6617,18.6551],[76.6812,18.6498],[76.6786,18.6342],[76.6571,18.6331],[76.6531,18.6422],[76.6361,18.648],[76.6409,18.6624],[76.6348,18.6738],[76.5946,18.672],[76.5928,18.6523],[76.5868,18.6496],[76.5782,18.6194],[76.5591,18.6292],[76.5616,18.6382],[76.5457,18.6358],[76.5409,18.6508],[76.5297,18.6488],[76.5247,18.6239],[76.4996,18.6039],[76.4782,18.6152],[76.4716,18.6338],[76.4656,18.6349],[76.4547,18.6213],[76.4292,18.6168],[76.4201,18.608],[76.4117,18.608],[76.4109,18.601],[76.4038,18.6017],[76.4031,18.5964],[76.3919,18.5958],[76.385,18.564],[76.3874,18.5509],[76.3932,18.5499],[76.391,18.542],[76.3677,18.5437],[76.3603,18.559],[76.3493,18.5653],[76.3382,18.5604],[76.3231,18.5705],[76.3125,18.5653],[76.2929,18.5762],[76.2786,18.574],[76.2692,18.5239],[76.2528,18.5179],[76.2547,18.4954],[76.2595,18.4943],[76.2535,18.4835],[76.267,18.4756],[76.2695,18.469],[76.2619,18.4653],[76.2686,18.4219],[76.2274,18.4341],[76.2157,18.4085],[76.2024,18.3939]]]}},{"type":"Feature","properties":{"region":"beed-district-2026","name":"Beed","nameMr":"बीड"},"geometry":{"type":"Polygon","coordinates":[[[74.8081,18.976],[74.8114,18.9627],[74.828,18.9624],[74.8354,18.9534],[74.8339,18.9394],[74.8254,18.9323],[74.8419,18.9239],[74.8455,18.911],[74.8592,18.899],[74.8649,18.8983],[74.8745,18.9126],[74.8823,18.9138],[74.8849,18.887],[74.8977,18.8757],[74.8945,18.8468],[74.9101,18.8467],[74.918,18.8531],[74.9266,18.843],[74.9202,18.8315],[74.9237,18.8255],[74.9437,18.8294],[74.9596,18.8196],[74.9739,18.828],[74.9721,18.8119],[74.9859,18.7973],[74.9975,18.7984],[74.9987,18.805],[74.9989,18.7985],[75.0015,18.803],[75.0087,18.8032],[75.004,18.788],[75.0065,18.7816],[75.0171,18.7719],[75.0391,18.7636],[75.0445,18.7509],[75.0538,18.7464],[75.0585,18.7344],[75.0686,18.7305],[75.0769,18.7147],[75.1022,18.703],[75.1105,18.6886],[75.1192,18.6858],[75.1171,18.6798],[75.1398,18.6656],[75.1415,18.6531],[75.1561,18.642],[75.1621,18.6541],[75.1659,18.6944],[75.1753,18.7089],[75.1733,18.7359],[75.2064,18.7384],[75.2532,18.7204],[75.2756,18.7297],[75.2956,18.7675],[75.3297,18.8043],[75.3445,18.7839],[75.3646,18.7866],[75.3636,18.7819],[75.374,18.7747],[75.3751,18.7663],[75.3826,18.7692],[75.3923,18.8221],[75.3993,18.831],[75.4201,18.8186],[75.4431,18.7931],[75.4445,18.7639],[75.4504,18.7502],[75.4683,18.7515],[75.4687,18.7475],[75.4936,18.7363],[75.4936,18.7281],[75.5077,18.7232],[75.525,18.7314],[75.5263,18.753],[75.5473,18.7433],[75.5559,18.7339],[75.554,18.7073],[75.5953,18.6935],[75.6058,18.6862],[75.6158,18.6648],[75.6335,18.6537],[75.6378,18.6555],[75.642,18.6493],[75.6583,18.6461],[75.6662,18.6511],[75.6635,18.6728],[75.6676,18.6914],[75.7026,18.6881],[75.7267,18.6753],[75.7449,18.6834],[75.7558,18.6808],[75.77,18.6698],[75.7734,18.6741],[75.779,18.6712],[75.7786,18.6663],[75.7899,18.6566],[75.7979,18.6745],[75.8027,18.6744],[75.8485,18.6558],[75.8572,18.6597],[75.8563,18.6493],[75.8711,18.6542],[75.8726,18.6484],[75.8807,18.6467],[75.9048,18.65],[75.9199,18.643],[75.9393,18.6413],[75.9448,18.6342],[75.9428,18.6116],[75.9466,18.6053],[75.9572,18.6046],[75.9903,18.6189],[75.9965,18.6076],[75.9821,18.5921],[75.9929,18.5834],[76.0078,18.5856],[76.0052,18.6],[76.0108,18.6073],[76.0321,18.6003],[76.0355,18.5913],[76.0441,18.5896],[76.0488,18.5748],[76.0552,18.5723],[76.0774,18.5754],[76.1001,18.588],[76.1382,18.5863],[76.155,18.5824],[76.1571,18.5589],[76.1613,18.5554],[76.1693,18.5622],[76.1655,18.5712],[76.1686,18.5859],[76.2,18.5824],[76.2002,18.577],[76.2199,18.5741],[76.2548,18.5756],[76.2548,18.564],[76.2754,18.558],[76.2794,18.5742],[76.2929,18.5762],[76.3125,18.5653],[76.3231,18.5705],[76.3364,18.5608],[76.3463,18.5657],[76.3596,18.5594],[76.3677,18.5437],[76.391,18.542],[76.3932,18.5499],[76.3874,18.5509],[76.385,18.564],[76.3919,18.5958],[76.4031,18.5964],[76.4038,18.6017],[76.4109,18.601],[76.4117,18.608],[76.4201,18.608],[76.4292,18.6168],[76.4547,18.6213],[76.4656,18.6349],[76.4716,18.6338],[76.4782,18.6152],[76.4996,18.6039],[76.5247,18.6239],[76.5297,18.6488],[76.5332,18.6495],[76.5409,18.6508],[76.5457,18.6358],[76.5616,18.6382],[76.5591,18.6292],[76.5782,18.6194],[76.5868,18.6496],[76.5928,18.6523],[76.5946,18.672],[76.627,18.6753],[76.6348,18.6738],[76.6353,18.6675],[76.6405,18.6658],[76.6361,18.648],[76.6531,18.6422],[76.6571,18.6331],[76.6786,18.6342],[76.6812,18.6498],[76.6614,18.6575],[76.6818,18.6917],[76.6974,18.6912],[76.7131,18.6998],[76.7271,18.6953],[76.7339,18.7011],[76.7325,18.722],[76.7245,18.7365],[76.7231,18.7504],[76.6977,18.7594],[76.681,18.756],[76.6707,18.7656],[76.6819,18.7787],[76.6661,18.8077],[76.6693,18.8149],[76.6633,18.8213],[76.6441,18.8204],[76.6403,18.8472],[76.6267,18.849],[76.6202,18.8687],[76.5869,18.868],[76.5809,18.8753],[76.5854,18.9035],[76.5838,18.9436],[76.5363,18.95],[76.5328,18.918],[76.5172,18.9185],[76.5095,18.9265],[76.5038,18.9481],[76.477,18.9554],[76.4736,18.9632],[76.4775,18.975],[76.4687,18.9787],[76.4786,19.0009],[76.4559,19.0097],[76.4525,19.0234],[76.4473,19.0255],[76.4485,19.0328],[76.4394,19.0408],[76.4389,19.0481],[76.4501,19.0515],[76.434,19.0725],[76.4386,19.0874],[76.4347,19.0967],[76.4287,19.0992],[76.4201,19.0919],[76.4094,19.0927],[76.3939,19.112],[76.3895,19.1253],[76.3795,19.1309],[76.3638,19.1217],[76.3502,19.1003],[76.332,19.1002],[76.3206,19.1099],[76.3202,19.1171],[76.3279,19.1217],[76.3332,19.1371],[76.3541,19.1467],[76.3603,19.1565],[76.354,19.1675],[76.3572,19.1802],[76.3515,19.1935],[76.3629,19.2147],[76.3619,19.2374],[76.3426,19.251],[76.3232,19.2538],[76.3099,19.2646],[76.2865,19.266],[76.2606,19.2547],[76.2511,19.2407],[76.2393,19.2456],[76.2244,19.243],[76.2263,19.2562],[76.2143,19.2606],[76.2124,19.2711],[76.1985,19.2835],[76.1797,19.2883],[76.1624,19.2829],[76.1593,19.2964],[76.1389,19.2907],[76.1289,19.3023],[76.1217,19.3026],[76.1148,19.2964],[76.1048,19.3076],[76.0965,19.3049],[76.09,19.2835],[76.0852,19.2803],[76.0388,19.2842],[76.0257,19.2978],[76.0209,19.3287],[76.0244,19.335],[76.0202,19.3388],[76.0099,19.3353],[75.9813,19.3077],[75.9402,19.2916],[75.9204,19.3003],[75.906,19.3192],[75.9054,19.3475],[75.9236,19.3828],[75.9125,19.392],[75.9036,19.3905],[75.8903,19.3786],[75.8768,19.3833],[75.838,19.3714],[75.7868,19.3993],[75.7584,19.3888],[75.7614,19.3753],[75.751,19.3574],[75.7142,19.355],[75.6995,19.3591],[75.6848,19.3548],[75.6766,19.3571],[75.6702,19.3684],[75.6505,19.3678],[75.6414,19.3816],[75.624,19.3735],[75.5987,19.3854],[75.5859,19.378],[75.5541,19.3849],[75.517,19.4047],[75.5164,19.417],[75.5068,19.4234],[75.5073,19.431],[75.4835,19.4415],[75.4738,19.4243],[75.4872,19.4169],[75.4834,19.3843],[75.4966,19.378],[75.5157,19.3842],[75.5308,19.3754],[75.5168,19.3314],[75.5408,19.3275],[75.5389,19.3076],[75.5257,19.2986],[75.519,19.2776],[75.5044,19.2673],[75.4732,19.2588],[75.4735,19.2531],[75.4587,19.2499],[75.4456,19.2207],[75.4219,19.2195],[75.402,19.1981],[75.4243,19.1726],[75.4451,19.1697],[75.4499,19.1622],[75.4516,19.1433],[75.4234,19.1377],[75.4311,19.117],[75.453,19.126],[75.4805,19.1268],[75.4852,19.1059],[75.4493,19.0834],[75.4445,19.092],[75.4164,19.0873],[75.4067,19.0797],[75.369,19.0817],[75.3661,19.0889],[75.3829,19.105],[75.3918,19.1241],[75.4035,19.1232],[75.4079,19.127],[75.408,19.1387],[75.3941,19.1421],[75.3766,19.1294],[75.3622,19.1317],[75.3536,19.1261],[75.3533,19.1463],[75.3388,19.1551],[75.3313,19.1523],[75.3321,19.1306],[75.3498,19.123],[75.3523,19.1138],[75.362,19.1088],[75.3643,19.0791],[75.339,19.0805],[75.3083,19.097],[75.2955,19.0848],[75.2824,19.0845],[75.2806,19.0809],[75.2927,19.0721],[75.2871,19.0327],[75.3258,19.0328],[75.3443,19.0244],[75.3416,18.9915],[75.3177,18.9808],[75.2921,18.9809],[75.2701,18.9972],[75.265,19.0187],[75.2582,19.0256],[75.2672,19.034],[75.2692,19.0532],[75.2609,19.0694],[75.2358,19.0616],[75.2258,19.0659],[75.2279,19.0847],[75.2176,19.1105],[75.1883,19.0915],[75.1966,19.0698],[75.1863,19.0536],[75.2073,19.0368],[75.2102,19.0235],[75.1818,19.0117],[75.1689,19.0208],[75.1655,19.037],[75.1469,19.0415],[75.1434,19.0354],[75.1135,19.0442],[75.1024,19.0429],[75.0705,19.0564],[75.0741,19.0676],[75.0904,19.0684],[75.083,19.0715],[75.0802,19.0821],[75.0987,19.0832],[75.0987,19.101],[75.1107,19.115],[75.1066,19.1257],[75.0726,19.1208],[75.0755,19.1184],[75.0713,19.1159],[75.0756,19.114],[75.0713,19.1084],[75.0756,19.1061],[75.0678,19.1032],[75.0657,19.1071],[75.0551,19.0998],[75.0528,19.1057],[75.0366,19.1011],[75.0441,19.11],[75.0245,19.1023],[75.0254,19.1141],[75.0116,19.1046],[74.9987,19.1117],[74.9858,19.1111],[74.9794,19.117],[74.9802,19.1125],[74.9741,19.1114],[74.9585,19.1191],[74.9455,19.1331],[74.9215,19.096],[74.9147,19.0427],[74.9222,19.0324],[74.9507,19.0326],[74.9487,19.0047],[74.9604,18.9997],[74.9536,18.9886],[74.9527,18.9721],[74.9443,18.97],[74.9354,18.9757],[74.9226,18.9713],[74.9166,18.9588],[74.904,18.9638],[74.8985,18.9794],[74.8767,18.9843],[74.8368,18.9705],[74.8238,18.99],[74.8081,18.976]]]}},{"type":"Feature","properties":{"region":"dharashiv-district-2026","name":"Dharashiv","nameMr":"धाराशिव"},"geometry":{"type":"Polygon","coordinates":[[[75.2854,18.4097],[75.3059,18.3896],[75.3158,18.3953],[75.3232,18.3936],[75.3263,18.3851],[75.335,18.388],[75.3373,18.3805],[75.3583,18.3677],[75.3645,18.3559],[75.382,18.3438],[75.3886,18.3266],[75.4035,18.3275],[75.3984,18.3236],[75.4012,18.3166],[75.3913,18.3077],[75.4002,18.2962],[75.3931,18.2851],[75.395,18.2632],[75.4301,18.261],[75.428,18.2464],[75.4196,18.2389],[75.4265,18.2325],[75.428,18.2146],[75.4382,18.2045],[75.4254,18.1838],[75.428,18.1757],[75.4414,18.175],[75.4629,18.1589],[75.4639,18.1712],[75.4858,18.1739],[75.4871,18.1514],[75.4945,18.1573],[75.5026,18.1563],[75.518,18.145],[75.5149,18.1389],[75.5268,18.1308],[75.5433,18.1519],[75.5441,18.177],[75.5546,18.1923],[75.5496,18.2047],[75.5606,18.2036],[75.5694,18.2365],[75.5795,18.2421],[75.5864,18.2532],[75.6293,18.2436],[75.6301,18.2653],[75.6149,18.2723],[75.6467,18.3286],[75.6543,18.3323],[75.6828,18.3247],[75.6943,18.3267],[75.7045,18.3382],[75.7179,18.3388],[75.7283,18.3622],[75.7235,18.3858],[75.7057,18.3943],[75.7228,18.4323],[75.7643,18.4389],[75.7714,18.4058],[75.779,18.4032],[75.7801,18.395],[75.7933,18.3871],[75.7951,18.38],[75.8237,18.378],[75.8375,18.3672],[75.8587,18.3602],[75.8803,18.3655],[75.8925,18.3604],[75.9055,18.3271],[75.9234,18.3073],[75.932,18.2897],[75.9295,18.2575],[75.9424,18.2482],[75.9468,18.2352],[75.9459,18.2165],[75.9358,18.1941],[75.9404,18.1819],[75.9536,18.1721],[75.9573,18.1608],[75.9483,18.1368],[75.939,18.1268],[75.9454,18.1047],[75.955,18.0995],[75.955,18.0862],[75.9845,18.0882],[75.9887,18.084],[75.9897,18.0714],[75.995,18.069],[75.9864,18.0528],[76.0036,18.0565],[76.0061,18.0507],[76.0139,18.0518],[76.0187,18.0429],[76.0042,18.0313],[75.9963,17.9959],[75.9826,17.9936],[75.9795,17.9721],[75.9686,17.9715],[75.9531,17.9787],[75.93,17.9724],[75.9163,17.9754],[75.9089,17.9894],[75.9096,18.0012],[75.8813,18.0044],[75.8712,18.0112],[75.8585,18.012],[75.8525,18.0079],[75.8397,17.9829],[75.8444,17.9795],[75.8379,17.9594],[75.8373,17.9327],[75.8456,17.9309],[75.8504,17.9199],[75.8438,17.8946],[75.8547,17.8712],[75.8739,17.8598],[75.8742,17.8452],[75.9118,17.8334],[75.9246,17.8337],[75.9299,17.8502],[75.9402,17.8525],[75.943,17.8449],[75.9619,17.8309],[75.9678,17.8179],[75.9774,17.8205],[75.9775,17.843],[76.0179,17.8282],[76.0078,17.8013],[76.0113,17.7886],[76.0051,17.7861],[76.0029,17.7496],[76.0278,17.7659],[76.0546,17.7628],[76.0773,17.7757],[76.0963,17.7772],[76.1025,17.7648],[76.1274,17.7679],[76.1297,17.7593],[76.1454,17.7562],[76.1475,17.7335],[76.1746,17.7282],[76.1673,17.7138],[76.1474,17.7166],[76.1458,17.6984],[76.1648,17.6983],[76.1653,17.6925],[76.1872,17.6829],[76.2026,17.6891],[76.2219,17.688],[76.2221,17.6989],[76.2381,17.6977],[76.2381,17.7067],[76.2517,17.7052],[76.2551,17.7155],[76.2674,17.7266],[76.2969,17.7274],[76.315,17.7138],[76.321,17.6958],[76.3386,17.6922],[76.3572,17.6949],[76.3628,17.6851],[76.3795,17.6848],[76.3823,17.6584],[76.4055,17.6541],[76.4188,17.6447],[76.435,17.6459],[76.4431,17.6416],[76.4422,17.6486],[76.4532,17.6498],[76.4533,17.6558],[76.4887,17.6593],[76.4841,17.6838],[76.4871,17.7135],[76.5014,17.7182],[76.5239,17.716],[76.5279,17.739],[76.5244,17.7599],[76.5598,17.7648],[76.5718,17.7613],[76.5646,17.7508],[76.5706,17.7061],[76.5803,17.7056],[76.5871,17.7075],[76.6005,17.7264],[76.6058,17.758],[76.6118,17.7705],[76.616,17.7701],[76.6314,17.7545],[76.634,17.7284],[76.6527,17.7225],[76.6647,17.6874],[76.6717,17.6911],[76.6905,17.6802],[76.6935,17.696],[76.7034,17.6933],[76.7126,17.6967],[76.7005,17.7062],[76.7054,17.7231],[76.6993,17.7284],[76.7283,17.7376],[76.7242,17.7501],[76.7184,17.7519],[76.7216,17.7698],[76.7127,17.7741],[76.7143,17.7813],[76.7214,17.7882],[76.7407,17.7798],[76.7425,17.7841],[76.7619,17.7874],[76.7663,17.7989],[76.7793,17.7982],[76.7812,17.815],[76.7907,17.8251],[76.7683,17.8517],[76.7539,17.8577],[76.7384,17.856],[76.7412,17.8949],[76.735,17.9082],[76.7216,17.9162],[76.6748,17.918],[76.6757,17.9352],[76.6812,17.9439],[76.6728,17.9481],[76.6732,17.9644],[76.6757,17.969],[76.6879,17.9695],[76.681,17.9929],[76.6653,17.9982],[76.615,18.0002],[76.604,18.0056],[76.6077,18.0355],[76.5974,18.0305],[76.5866,18.0384],[76.5673,18.0383],[76.5524,18.0249],[76.5477,18.0328],[76.5355,18.0348],[76.5311,18.0342],[76.5303,18.0212],[76.5111,18.0221],[76.5126,18.0436],[76.4992,18.0477],[76.4941,18.0234],[76.4277,18.0326],[76.4039,18.046],[76.397,18.0544],[76.3974,18.0662],[76.3788,18.0871],[76.3715,18.089],[76.3313,18.0743],[76.3278,18.0941],[76.3071,18.0946],[76.2959,18.0996],[76.2984,18.1055],[76.2794,18.1089],[76.2842,18.1266],[76.2758,18.1401],[76.2821,18.1524],[76.2806,18.1803],[76.292,18.1952],[76.3014,18.2294],[76.2865,18.2319],[76.2835,18.2494],[76.2937,18.2597],[76.3044,18.2623],[76.3145,18.2816],[76.3169,18.3299],[76.2852,18.3408],[76.2886,18.3883],[76.2572,18.3641],[76.2487,18.3747],[76.2246,18.3795],[76.2024,18.3939],[76.2157,18.4085],[76.2274,18.4341],[76.2686,18.4219],[76.2619,18.4653],[76.2695,18.469],[76.267,18.4756],[76.2535,18.4835],[76.2595,18.4943],[76.2547,18.4954],[76.2528,18.5179],[76.2692,18.5239],[76.2754,18.558],[76.2548,18.564],[76.2548,18.5756],[76.2199,18.5741],[76.2002,18.577],[76.2,18.5824],[76.1686,18.5859],[76.1655,18.5712],[76.1693,18.5622],[76.1613,18.5554],[76.1571,18.5589],[76.155,18.5824],[76.1001,18.588],[76.0774,18.5754],[76.0552,18.5723],[76.0488,18.5748],[76.0441,18.5896],[76.0355,18.5913],[76.0321,18.6003],[76.0108,18.6073],[76.0052,18.6],[76.0078,18.5856],[75.9957,18.5827],[75.9821,18.5921],[75.9965,18.6076],[75.9949,18.616],[75.9844,18.6188],[75.9572,18.6046],[75.9466,18.6053],[75.9428,18.6116],[75.9448,18.6342],[75.9393,18.6413],[75.9199,18.643],[75.9048,18.65],[75.8807,18.6467],[75.8726,18.6484],[75.8711,18.6542],[75.8563,18.6493],[75.8572,18.6597],[75.8485,18.6558],[75.8027,18.6744],[75.7979,18.6745],[75.7927,18.6567],[75.7875,18.657],[75.779,18.6712],[75.7734,18.6741],[75.77,18.6698],[75.7558,18.6808],[75.7449,18.6834],[75.7267,18.6753],[75.7026,18.6881],[75.6676,18.6914],[75.6635,18.6728],[75.6662,18.6511],[75.6586,18.6462],[75.6478,18.6477],[75.6165,18.6642],[75.6058,18.6862],[75.5834,18.6982],[75.5815,18.6849],[75.5431,18.6799],[75.5403,18.6585],[75.5476,18.6497],[75.5409,18.6394],[75.5197,18.6382],[75.519,18.6335],[75.4998,18.621],[75.4894,18.6263],[75.4855,18.6194],[75.4623,18.6052],[75.4425,18.5787],[75.4334,18.5517],[75.4145,18.5317],[75.3757,18.551],[75.3424,18.5593],[75.3302,18.5361],[75.3295,18.5247],[75.313,18.5202],[75.3105,18.5088],[75.3025,18.507],[75.2966,18.4956],[75.3031,18.4809],[75.2974,18.4471],[75.3027,18.4357],[75.2854,18.4097]]]}},{"type":"Feature","properties":{"region":"nanded-district-2026","name":"Nanded","nameMr":"नांदेड"},"geometry":{"type":"Polygon","coordinates":[[[76.9308,18.9011],[76.9348,18.8939],[76.9535,18.8925],[76.9528,18.8743],[76.9882,18.8813],[77.0148,18.8799],[77.0194,18.844],[77.0078,18.842],[76.9909,18.8263],[77.0093,18.7671],[77.0485,18.7744],[77.0567,18.7687],[77.0537,18.7438],[77.0573,18.7265],[77.0437,18.7029],[77.0448,18.684],[77.0656,18.6824],[77.0718,18.689],[77.1339,18.6983],[77.1355,18.712],[77.1434,18.7138],[77.1523,18.7],[77.18,18.7025],[77.1919,18.6895],[77.1769,18.6805],[77.1583,18.6802],[77.1555,18.6472],[77.1972,18.6476],[77.2113,18.6337],[77.2112,18.6253],[77.2671,18.6118],[77.2685,18.5834],[77.2637,18.5803],[77.2627,18.5664],[77.2953,18.5474],[77.2804,18.522],[77.2673,18.5221],[77.2465,18.4969],[77.2496,18.4884],[77.2656,18.4794],[77.2872,18.474],[77.3003,18.476],[77.3013,18.4696],[77.3012,18.4635],[77.2891,18.4535],[77.2545,18.4545],[77.2539,18.4504],[77.2646,18.442],[77.2664,18.4228],[77.315,18.4413],[77.3211,18.4592],[77.3341,18.4512],[77.3401,18.4382],[77.3535,18.4499],[77.3656,18.451],[77.3692,18.4475],[77.3635,18.431],[77.3726,18.4009],[77.4009,18.4023],[77.4141,18.3923],[77.4098,18.3766],[77.3949,18.3695],[77.4006,18.3475],[77.3826,18.3405],[77.3815,18.3315],[77.3563,18.3209],[77.3651,18.3095],[77.4123,18.3021],[77.4287,18.3129],[77.4377,18.3103],[77.4369,18.2921],[77.4412,18.2821],[77.4462,18.2834],[77.4477,18.2699],[77.4654,18.2634],[77.4753,18.2651],[77.4807,18.2721],[77.4939,18.2692],[77.508,18.2845],[77.5087,18.3047],[77.5132,18.3102],[77.5236,18.3084],[77.5498,18.2919],[77.5574,18.3048],[77.5736,18.303],[77.5736,18.3126],[77.5611,18.3309],[77.5441,18.3382],[77.5327,18.3343],[77.5327,18.3396],[77.5213,18.3476],[77.519,18.3578],[77.5261,18.373],[77.5412,18.3885],[77.5518,18.3923],[77.5559,18.4129],[77.5566,18.4192],[77.5286,18.4283],[77.528,18.442],[77.5432,18.4444],[77.5641,18.4365],[77.5692,18.4425],[77.5935,18.4421],[77.5975,18.4481],[77.5835,18.4497],[77.5824,18.4562],[77.5509,18.4609],[77.5487,18.4666],[77.5725,18.4691],[77.5766,18.4868],[77.5923,18.4848],[77.5946,18.4767],[77.6032,18.4764],[77.6037,18.4962],[77.5946,18.4958],[77.5853,18.5044],[77.5884,18.5132],[77.5998,18.5196],[77.5993,18.528],[77.5882,18.5264],[77.5958,18.5362],[77.5965,18.5493],[77.6274,18.5523],[77.6341,18.5426],[77.6395,18.5546],[77.6477,18.5555],[77.652,18.5517],[77.6488,18.5375],[77.6553,18.5316],[77.6802,18.5465],[77.6896,18.5475],[77.6934,18.5502],[77.6914,18.556],[77.7075,18.5653],[77.7131,18.5633],[77.7113,18.5576],[77.7208,18.5535],[77.7383,18.5569],[77.7404,18.5756],[77.7493,18.5904],[77.7451,18.6223],[77.7309,18.6449],[77.7286,18.6654],[77.7343,18.6763],[77.7473,18.684],[77.7519,18.7011],[77.7601,18.7077],[77.7672,18.706],[77.7722,18.702],[77.7722,18.6889],[77.7868,18.683],[77.8421,18.8069],[77.8593,18.809],[77.8698,18.8171],[77.9043,18.8273],[77.9336,18.8237],[77.948,18.8304],[77.9473,18.8445],[77.9344,18.8466],[77.9366,18.8532],[77.9285,18.855],[77.9291,18.8603],[77.9029,18.8674],[77.9033,18.8824],[77.891,18.8833],[77.8851,18.9058],[77.8739,18.9089],[77.8724,18.9049],[77.8598,18.904],[77.8427,18.9102],[77.8579,18.9495],[77.842,18.951],[77.8317,18.9427],[77.8159,18.9483],[77.8201,18.9799],[77.7908,18.9838],[77.7867,18.9738],[77.7709,18.9802],[77.7736,18.999],[77.7697,19.0221],[77.7606,19.0326],[77.7656,19.0634],[77.7753,19.0559],[77.8001,19.0509],[77.7963,19.0719],[77.8022,19.078],[77.8054,19.1017],[77.8175,19.1051],[77.8312,19.0866],[77.8498,19.0891],[77.8463,19.1058],[77.8519,19.1168],[77.8417,19.1182],[77.8341,19.1344],[77.8523,19.1543],[77.8553,19.1772],[77.8602,19.1802],[77.8445,19.1911],[77.85,19.1935],[77.8668,19.2268],[77.87,19.2492],[77.8852,19.2623],[77.903,19.2567],[77.9075,19.2685],[77.9042,19.2788],[77.8665,19.2842],[77.8634,19.3044],[77.8727,19.3046],[77.8878,19.3107],[77.8915,19.3176],[77.9499,19.3385],[77.9781,19.3208],[77.9872,19.3062],[78.0134,19.2944],[78.015,19.279],[78.0421,19.2706],[78.0355,19.2503],[78.0511,19.2395],[78.0563,19.2383],[78.0644,19.2484],[78.0791,19.2552],[78.0824,19.243],[78.0887,19.24],[78.1059,19.2494],[78.1136,19.2483],[78.1398,19.2301],[78.1753,19.2379],[78.1822,19.2479],[78.1775,19.255],[78.1774,19.2791],[78.1829,19.2838],[78.1933,19.3187],[78.1905,19.329],[78.1744,19.3306],[78.1587,19.3602],[78.1687,19.3589],[78.1885,19.4094],[78.1942,19.4369],[78.2423,19.4232],[78.2581,19.4328],[78.266,19.4323],[78.26,19.4519],[78.275,19.4559],[78.2969,19.4468],[78.308,19.4555],[78.3111,19.4744],[78.291,19.5248],[78.2925,19.5428],[78.2832,19.5428],[78.2744,19.5559],[78.2749,19.5633],[78.2937,19.56],[78.2968,19.5685],[78.303,19.5699],[78.3066,19.6065],[78.2953,19.6197],[78.2905,19.6452],[78.282,19.6507],[78.2801,19.6578],[78.2635,19.6658],[78.2784,19.6925],[78.2928,19.6873],[78.3123,19.6917],[78.3175,19.7055],[78.3406,19.7102],[78.3408,19.7365],[78.3514,19.7387],[78.3652,19.7792],[78.3578,19.8053],[78.3458,19.8134],[78.3341,19.8147],[78.3371,19.8384],[78.3191,19.8426],[78.3039,19.8403],[78.2861,19.8475],[78.2854,19.8568],[78.2987,19.8745],[78.3059,19.9138],[78.284,19.906],[78.2758,19.8761],[78.2519,19.866],[78.2411,19.8816],[78.2567,19.9046],[78.2507,19.925],[78.2348,19.9114],[78.2189,19.9099],[78.2076,19.8998],[78.1966,19.897],[78.1886,19.8959],[78.1765,19.9049],[78.1432,19.9108],[78.1283,19.8947],[78.1039,19.8905],[78.0761,19.8951],[78.0526,19.9246],[78.0277,19.9177],[78.0177,19.9083],[77.9977,19.9116],[77.9685,19.9057],[77.9517,19.9085],[77.9368,19.8921],[77.9205,19.8892],[77.8943,19.8732],[77.8743,19.8447],[77.8707,19.8223],[77.8494,19.8014],[77.8521,19.7846],[77.8638,19.7744],[77.8582,19.751],[77.8635,19.7424],[77.8755,19.7444],[77.891,19.7256],[77.8986,19.7333],[77.9141,19.7292],[77.9276,19.7384],[77.9364,19.7368],[77.9496,19.7285],[77.9645,19.7052],[77.98,19.7001],[77.9817,19.6798],[77.9929,19.6734],[78.0004,19.673],[78.0263,19.691],[78.038,19.6928],[78.0503,19.6893],[78.0562,19.6744],[78.0549,19.6639],[78.07,19.6594],[78.0848,19.6379],[78.0956,19.6384],[78.0967,19.6471],[78.1053,19.656],[78.1257,19.652],[78.1305,19.6642],[78.1803,19.6488],[78.1967,19.6161],[78.1906,19.5989],[78.1921,19.5868],[78.1852,19.578],[78.1887,19.5586],[78.151,19.5458],[78.1223,19.5498],[78.1201,19.5433],[78.1332,19.5315],[78.1354,19.5221],[78.1224,19.5099],[78.1129,19.4829],[78.0956,19.484],[78.0669,19.46],[78.0246,19.4901],[78.0165,19.4853],[78.0132,19.4548],[77.9882,19.4583],[77.9826,19.4658],[77.9878,19.4785],[77.9769,19.491],[77.9712,19.5088],[77.9527,19.511],[77.9388,19.4973],[77.9338,19.5054],[77.9144,19.5175],[77.9096,19.5331],[77.9058,19.534],[77.8988,19.5232],[77.8884,19.5176],[77.8856,19.5021],[77.8773,19.5041],[77.8768,19.5154],[77.8585,19.5223],[77.8431,19.5105],[77.8423,19.4879],[77.825,19.4791],[77.846,19.4539],[77.8319,19.4398],[77.818,19.4423],[77.8141,19.4568],[77.8049,19.4642],[77.7986,19.4499],[77.7855,19.4492],[77.7514,19.4307],[77.7462,19.4305],[77.742,19.4379],[77.7284,19.4341],[77.7009,19.438],[77.6958,19.4403],[77.6949,19.4565],[77.7098,19.4683],[77.7115,19.4778],[77.7232,19.4739],[77.7392,19.4832],[77.7335,19.4948],[77.7487,19.5076],[77.7506,19.5157],[77.7456,19.5252],[77.7296,19.5332],[77.7119,19.5255],[77.6948,19.5399],[77.6757,19.5386],[77.6504,19.5506],[77.6456,19.5488],[77.6431,19.5528],[77.6491,19.5594],[77.6376,19.5938],[77.6434,19.6075],[77.6386,19.6103],[77.6272,19.6059],[77.6258,19.6252],[77.6131,19.6279],[77.6154,19.639],[77.6075,19.639],[77.6071,19.6485],[77.5974,19.6422],[77.596,19.6506],[77.5842,19.6494],[77.5793,19.6582],[77.57,19.6498],[77.5549,19.6508],[77.5517,19.662],[77.541,19.6598],[77.5383,19.6698],[77.505,19.6728],[77.4994,19.679],[77.4826,19.6771],[77.4765,19.6837],[77.4581,19.6827],[77.45,19.6753],[77.4621,19.6705],[77.4664,19.6632],[77.4624,19.6449],[77.4667,19.6395],[77.4641,19.6107],[77.48,19.6009],[77.4595,19.5822],[77.4524,19.5705],[77.453,19.5625],[77.4667,19.5624],[77.4713,19.4916],[77.486,19.4979],[77.4893,19.4889],[77.4868,19.458],[77.4749,19.4562],[77.4706,19.4385],[77.4498,19.4398],[77.4457,19.422],[77.437,19.4092],[77.4489,19.3913],[77.4476,19.3847],[77.4176,19.3776],[77.4141,19.3677],[77.3893,19.353],[77.3842,19.34],[77.3635,19.3393],[77.3515,19.3465],[77.3509,19.353],[77.3126,19.3556],[77.3104,19.3306],[77.2814,19.3255],[77.2804,19.3163],[77.2415,19.3219],[77.2363,19.2746],[77.2212,19.2749],[77.2029,19.2544],[77.2028,19.2442],[77.1933,19.2442],[77.1927,19.2361],[77.18,19.2296],[77.1763,19.2136],[77.1825,19.1948],[77.1778,19.1692],[77.1916,19.1627],[77.1928,19.1394],[77.1893,19.1306],[77.1793,19.1307],[77.1759,19.1212],[77.1642,19.1205],[77.1634,19.0968],[77.1576,19.0835],[77.1402,19.0711],[77.122,19.0792],[77.0907,19.0679],[77.0858,19.0748],[77.0873,19.0859],[77.1042,19.0978],[77.1008,19.1084],[77.0853,19.109],[77.0631,19.0712],[77.0648,19.0322],[77.0436,19.0323],[77.0437,19.0043],[77.0564,18.999],[77.0567,18.9914],[77.0386,18.9689],[77.0244,18.9356],[77.004,18.9295],[76.9901,18.9345],[76.9793,18.9129],[76.975,18.9137],[76.9701,18.9279],[76.9552,18.9328],[76.9485,18.9263],[76.9464,18.9073],[76.9308,18.9011]]]}},{"type":"Feature","properties":{"region":"parbhani-district-2026","name":"Parbhani","nameMr":"परभणी"},"geometry":{"type":"Polygon","coordinates":[[[76.2072,19.3028],[76.2079,19.2978],[76.2189,19.293],[76.2076,19.2767],[76.2143,19.2606],[76.2263,19.2562],[76.2244,19.243],[76.2393,19.2456],[76.2511,19.2407],[76.2606,19.2547],[76.2865,19.266],[76.3099,19.2646],[76.3232,19.2538],[76.3426,19.251],[76.3619,19.2374],[76.3629,19.2147],[76.3515,19.1935],[76.3572,19.1802],[76.354,19.1675],[76.3603,19.1565],[76.3541,19.1467],[76.3332,19.1371],[76.3279,19.1217],[76.3202,19.1171],[76.3206,19.1099],[76.332,19.1002],[76.3502,19.1003],[76.3638,19.1217],[76.3795,19.1309],[76.3895,19.1253],[76.3939,19.112],[76.4094,19.0927],[76.4201,19.0919],[76.4287,19.0992],[76.4347,19.0967],[76.4386,19.0874],[76.434,19.0725],[76.4501,19.0515],[76.4389,19.0481],[76.4394,19.0408],[76.4485,19.0328],[76.4473,19.0255],[76.4525,19.0234],[76.4559,19.0097],[76.4786,19.0009],[76.4687,18.9787],[76.4775,18.975],[76.4736,18.9632],[76.477,18.9554],[76.5038,18.9481],[76.5095,18.9265],[76.5172,18.9185],[76.5328,18.918],[76.5363,18.95],[76.5838,18.9436],[76.5854,18.9035],[76.5798,18.8773],[76.5869,18.868],[76.6202,18.8687],[76.6267,18.849],[76.6403,18.8472],[76.6441,18.8204],[76.6633,18.8213],[76.6698,18.8143],[76.6661,18.8077],[76.6819,18.7787],[76.6707,18.7656],[76.681,18.756],[76.6977,18.7594],[76.7063,18.7537],[76.73,18.7509],[76.7425,18.7763],[76.7787,18.7769],[76.779,18.7957],[76.8105,18.8013],[76.8269,18.8129],[76.8514,18.8105],[76.8534,18.8199],[76.8632,18.8228],[76.8705,18.8331],[76.9066,18.8389],[76.9908,18.829],[77.0078,18.842],[77.0194,18.844],[77.0148,18.8799],[76.9882,18.8813],[76.9528,18.8743],[76.9535,18.8925],[76.9348,18.8939],[76.9308,18.9011],[76.9464,18.9073],[76.9485,18.9263],[76.9552,18.9328],[76.9701,18.9279],[76.975,18.9137],[76.9793,18.9129],[76.9901,18.9345],[77.004,18.9295],[77.0244,18.9356],[77.0386,18.9689],[77.0567,18.9914],[77.0564,18.999],[77.0437,19.0043],[77.0436,19.0323],[77.0648,19.0322],[77.0631,19.0712],[77.0853,19.109],[77.1008,19.1084],[77.1052,19.1188],[77.0922,19.1401],[77.1194,19.1505],[77.1117,19.1568],[77.0945,19.1575],[77.0985,19.1727],[77.0846,19.1767],[77.0754,19.1918],[77.0371,19.2023],[77.0411,19.219],[77.0533,19.2347],[77.049,19.2376],[77.0489,19.2487],[77.0316,19.2454],[77.0114,19.2522],[77.0112,19.2734],[77.0219,19.2782],[77.0228,19.285],[76.9909,19.2812],[76.9839,19.2978],[76.9863,19.3066],[76.9747,19.3119],[76.9784,19.319],[76.957,19.3205],[76.9365,19.3084],[76.9255,19.309],[76.9214,19.298],[76.9032,19.2975],[76.891,19.3086],[76.9008,19.3243],[76.9002,19.3388],[76.8884,19.3534],[76.8935,19.3653],[76.8923,19.3802],[76.8994,19.3846],[76.9111,19.411],[76.9195,19.416],[76.9167,19.4231],[76.9248,19.4373],[76.9204,19.4429],[76.9003,19.4453],[76.8962,19.4302],[76.8916,19.4294],[76.865,19.4385],[76.871,19.444],[76.8691,19.4489],[76.8858,19.4576],[76.8868,19.4634],[76.8658,19.4677],[76.8579,19.4971],[76.8537,19.4984],[76.8547,19.5077],[76.8498,19.5121],[76.8564,19.5358],[76.882,19.5332],[76.8813,19.5508],[76.891,19.5641],[76.8913,19.5809],[76.901,19.5838],[76.915,19.5982],[76.924,19.5979],[76.9303,19.6114],[76.9255,19.617],[76.9117,19.6202],[76.9143,19.636],[76.9046,19.6463],[76.894,19.6426],[76.8827,19.6247],[76.8694,19.6237],[76.8755,19.6419],[76.8509,19.6495],[76.8499,19.6634],[76.8639,19.675],[76.8498,19.707],[76.8401,19.7023],[76.8189,19.7068],[76.8137,19.6996],[76.8253,19.683],[76.8224,19.6712],[76.8182,19.6705],[76.8086,19.6831],[76.7914,19.6706],[76.7857,19.6756],[76.7831,19.703],[76.7899,19.723],[76.7834,19.7323],[76.7668,19.7181],[76.7722,19.6959],[76.7607,19.6871],[76.7509,19.6969],[76.7499,19.7069],[76.7371,19.7159],[76.7372,19.7317],[76.7271,19.7408],[76.7159,19.7685],[76.7092,19.7692],[76.6933,19.7576],[76.6833,19.7706],[76.6706,19.7762],[76.6421,19.7756],[76.6354,19.8014],[76.6305,19.8044],[76.6231,19.7845],[76.6038,19.7765],[76.5951,19.779],[76.5943,19.7844],[76.6108,19.7911],[76.598,19.7998],[76.6049,19.8116],[76.5938,19.8306],[76.57,19.8268],[76.5643,19.8155],[76.5539,19.8214],[76.5404,19.818],[76.5343,19.8231],[76.5128,19.8242],[76.5113,19.799],[76.4843,19.8002],[76.4817,19.7887],[76.4929,19.7747],[76.5126,19.7714],[76.51,19.7609],[76.4882,19.7637],[76.4836,19.7449],[76.4594,19.7473],[76.4592,19.7251],[76.4837,19.7215],[76.4878,19.6842],[76.4813,19.6782],[76.4701,19.6792],[76.4654,19.6656],[76.4526,19.6666],[76.4488,19.6583],[76.4446,19.6408],[76.4536,19.641],[76.4563,19.6367],[76.4509,19.6142],[76.4427,19.6139],[76.4324,19.6021],[76.4378,19.6001],[76.4366,19.5869],[76.448,19.5846],[76.4423,19.5415],[76.4157,19.534],[76.3957,19.5411],[76.3921,19.5315],[76.3758,19.537],[76.3684,19.5094],[76.376,19.5072],[76.3645,19.4709],[76.343,19.4728],[76.3386,19.4541],[76.3226,19.4575],[76.3132,19.4667],[76.3012,19.432],[76.2888,19.4333],[76.2845,19.3968],[76.2903,19.3964],[76.2903,19.3915],[76.2829,19.3657],[76.2618,19.3669],[76.2575,19.3566],[76.2763,19.3466],[76.2752,19.3436],[76.2635,19.3339],[76.2396,19.3365],[76.237,19.3179],[76.2305,19.3134],[76.2113,19.319],[76.2072,19.3028]]]}},{"type":"Feature","properties":{"region":"hingoli-district-2026","name":"Hingoli","nameMr":"हिंगोली"},"geometry":{"type":"Polygon","coordinates":[[[76.5119,19.8295],[76.5128,19.8242],[76.5211,19.8216],[76.5343,19.8231],[76.5404,19.818],[76.5539,19.8214],[76.5643,19.8155],[76.57,19.8268],[76.5956,19.8298],[76.6049,19.8116],[76.598,19.7998],[76.6108,19.7911],[76.5943,19.7844],[76.5951,19.779],[76.6038,19.7765],[76.6231,19.7845],[76.6305,19.8044],[76.6354,19.8014],[76.6421,19.7756],[76.6706,19.7762],[76.6833,19.7706],[76.6933,19.7576],[76.7092,19.7692],[76.7159,19.7685],[76.7271,19.7408],[76.7372,19.7317],[76.7371,19.7159],[76.7499,19.7069],[76.7509,19.6969],[76.7607,19.6871],[76.7722,19.6959],[76.7668,19.7181],[76.7822,19.7328],[76.7899,19.723],[76.7831,19.703],[76.7857,19.6756],[76.7902,19.6714],[76.797,19.6718],[76.8086,19.6831],[76.8212,19.6703],[76.8253,19.683],[76.8143,19.7021],[76.8199,19.7071],[76.8401,19.7023],[76.8498,19.707],[76.8639,19.675],[76.8499,19.6634],[76.8509,19.6495],[76.8755,19.6419],[76.8694,19.6237],[76.8827,19.6247],[76.8974,19.645],[76.9121,19.6416],[76.9106,19.6221],[76.9303,19.6114],[76.9249,19.5995],[76.915,19.5982],[76.901,19.5838],[76.8913,19.5809],[76.891,19.5641],[76.8813,19.5508],[76.882,19.5332],[76.8564,19.5358],[76.8498,19.5121],[76.8547,19.5077],[76.8537,19.4984],[76.8579,19.4971],[76.8658,19.4677],[76.8868,19.4634],[76.8858,19.4576],[76.8691,19.4489],[76.871,19.444],[76.865,19.4385],[76.8916,19.4294],[76.8962,19.4302],[76.9003,19.4453],[76.9204,19.4429],[76.9248,19.4373],[76.9167,19.4231],[76.9195,19.416],[76.9111,19.411],[76.8994,19.3846],[76.8923,19.3802],[76.8935,19.3653],[76.8884,19.3534],[76.9002,19.3388],[76.9008,19.3243],[76.891,19.3086],[76.9032,19.2975],[76.9214,19.298],[76.9255,19.309],[76.9365,19.3084],[76.957,19.3205],[76.9784,19.319],[76.9747,19.3119],[76.9863,19.3066],[76.9839,19.2978],[76.9909,19.2812],[77.0228,19.285],[77.0219,19.2782],[77.0112,19.2734],[77.0114,19.2522],[77.0316,19.2454],[77.0489,19.2487],[77.049,19.2376],[77.0537,19.2365],[77.0411,19.219],[77.0371,19.2023],[77.0754,19.1918],[77.0846,19.1767],[77.0985,19.1727],[77.0945,19.1575],[77.1117,19.1568],[77.1194,19.1505],[77.0922,19.1401],[77.1052,19.1188],[77.1008,19.1084],[77.1037,19.0961],[77.0899,19.0898],[77.0865,19.0835],[77.0864,19.0724],[77.0907,19.0679],[77.122,19.0792],[77.1402,19.0711],[77.159,19.0862],[77.1642,19.1205],[77.1759,19.1212],[77.1793,19.1307],[77.1893,19.1306],[77.1916,19.1627],[77.1778,19.1692],[77.1825,19.1948],[77.1763,19.2136],[77.18,19.2296],[77.1927,19.2361],[77.1933,19.2442],[77.2028,19.2442],[77.2029,19.2544],[77.2212,19.2749],[77.2363,19.2746],[77.2415,19.3219],[77.2804,19.3163],[77.2814,19.3255],[77.3104,19.3306],[77.3126,19.3556],[77.3509,19.353],[77.3515,19.3465],[77.3635,19.3393],[77.3842,19.34],[77.3893,19.353],[77.4141,19.3677],[77.4176,19.3776],[77.4476,19.3847],[77.4481,19.393],[77.4367,19.4081],[77.4498,19.4398],[77.4706,19.4385],[77.4749,19.4562],[77.4868,19.458],[77.4893,19.4889],[77.486,19.4979],[77.4721,19.4908],[77.4701,19.4951],[77.4667,19.5624],[77.453,19.5625],[77.4524,19.5705],[77.4595,19.5822],[77.48,19.6009],[77.4641,19.6107],[77.4667,19.6395],[77.4624,19.6449],[77.4664,19.6632],[77.4621,19.6705],[77.4503,19.6744],[77.4581,19.6827],[77.443,19.69],[77.4491,19.7016],[77.438,19.7254],[77.4166,19.7361],[77.4139,19.7449],[77.4013,19.7402],[77.3932,19.7281],[77.3789,19.7309],[77.3765,19.7513],[77.3834,19.7669],[77.4009,19.7679],[77.4045,19.7727],[77.4023,19.7815],[77.3781,19.7869],[77.384,19.8107],[77.3902,19.8125],[77.3887,19.8202],[77.3662,19.826],[77.3526,19.8183],[77.3402,19.8341],[77.3594,19.8361],[77.3525,19.8494],[77.3617,19.8557],[77.3606,19.861],[77.346,19.8635],[77.3448,19.876],[77.3321,19.8787],[77.3221,19.8896],[77.3096,19.8831],[77.2948,19.885],[77.2939,19.8956],[77.3123,19.8946],[77.3115,19.9147],[77.29,19.9039],[77.2833,19.9069],[77.2798,19.9179],[77.2707,19.9199],[77.2671,19.8985],[77.2556,19.9018],[77.2359,19.8898],[77.2342,19.8959],[77.2443,19.905],[77.2374,19.9138],[77.2377,19.9342],[77.234,19.9383],[77.2059,19.9416],[77.2077,19.9681],[77.2146,19.9729],[77.2013,19.9908],[77.1775,19.9798],[77.1708,19.9649],[77.1495,19.963],[77.1352,19.9515],[77.1342,19.9429],[77.1125,19.9394],[77.1022,19.9319],[77.0934,19.9351],[77.0932,19.9443],[77.0822,19.9561],[77.0837,19.9658],[77.0698,19.9731],[77.0703,19.9813],[77.0627,19.9851],[77.061,19.9943],[77.044,19.9978],[77.037,20.0081],[77.0293,20.0099],[77.0139,20.0019],[76.9939,20.0179],[76.9885,19.9981],[76.9726,19.9965],[76.9612,19.9871],[76.9224,19.9759],[76.9006,19.9643],[76.8955,19.9492],[76.8575,19.9623],[76.8374,19.964],[76.8215,19.9293],[76.7725,19.936],[76.7656,19.9045],[76.7473,19.9122],[76.7405,19.8734],[76.7213,19.8695],[76.6931,19.8741],[76.6922,19.8597],[76.6814,19.8471],[76.6615,19.8535],[76.6473,19.8671],[76.6335,19.8689],[76.6247,19.8488],[76.6142,19.8385],[76.5697,19.8454],[76.5641,19.8397],[76.5343,19.8505],[76.519,19.8501],[76.5228,19.842],[76.5119,19.8295]]]}},{"type":"Feature","properties":{"region":"jalna-district-2026","name":"Jalna","nameMr":"जालना"},"geometry":{"type":"Polygon","coordinates":[[[75.5854,19.6381],[75.5984,19.5999],[75.6495,19.5953],[75.6532,19.5857],[75.6506,19.578],[75.6564,19.568],[75.6469,19.5387],[75.643,19.5387],[75.6418,19.4962],[75.6317,19.4645],[75.6266,19.4606],[75.6141,19.4675],[75.6087,19.4523],[75.6048,19.452],[75.6034,19.4276],[75.6127,19.425],[75.6062,19.3836],[75.624,19.3735],[75.6414,19.3816],[75.6505,19.3678],[75.6729,19.3673],[75.6801,19.3557],[75.6995,19.3591],[75.7142,19.355],[75.7521,19.358],[75.7614,19.3753],[75.7584,19.3888],[75.7868,19.3993],[75.838,19.3714],[75.8768,19.3833],[75.8903,19.3786],[75.9036,19.3905],[75.9125,19.392],[75.9236,19.3828],[75.9054,19.3475],[75.906,19.3192],[75.9204,19.3003],[75.9402,19.2916],[75.9813,19.3077],[76.0099,19.3353],[76.0202,19.3388],[76.0244,19.335],[76.0209,19.3287],[76.0257,19.2978],[76.0388,19.2842],[76.0852,19.2803],[76.09,19.2835],[76.0965,19.3049],[76.1048,19.3076],[76.1134,19.2968],[76.1257,19.3033],[76.1341,19.2922],[76.1424,19.2906],[76.1566,19.2973],[76.161,19.2948],[76.1624,19.2829],[76.1818,19.2881],[76.2076,19.2767],[76.2189,19.293],[76.2073,19.2997],[76.2113,19.319],[76.2305,19.3134],[76.237,19.3179],[76.2396,19.3365],[76.2635,19.3339],[76.2752,19.3436],[76.2763,19.3466],[76.2575,19.3566],[76.2618,19.3669],[76.2829,19.3657],[76.2903,19.3915],[76.2903,19.3964],[76.2845,19.3968],[76.2888,19.4333],[76.3012,19.432],[76.3132,19.4667],[76.3226,19.4575],[76.3386,19.4541],[76.343,19.4728],[76.3645,19.4709],[76.376,19.5072],[76.3684,19.5094],[76.3758,19.537],[76.3921,19.5315],[76.3957,19.5411],[76.4157,19.534],[76.4423,19.5415],[76.448,19.5846],[76.4366,19.5869],[76.4378,19.6001],[76.4324,19.6021],[76.4427,19.6139],[76.4509,19.6142],[76.4563,19.6367],[76.4536,19.641],[76.4446,19.6408],[76.4488,19.6583],[76.4526,19.6666],[76.4654,19.6656],[76.4701,19.6792],[76.4813,19.6782],[76.4878,19.6842],[76.4837,19.7215],[76.4592,19.7251],[76.4594,19.7473],[76.4836,19.7449],[76.4882,19.7637],[76.51,19.7609],[76.5126,19.7714],[76.4866,19.7792],[76.4817,19.7887],[76.4837,19.799],[76.5113,19.799],[76.5144,19.8083],[76.5109,19.8189],[76.5153,19.8269],[76.5124,19.8318],[76.5228,19.842],[76.519,19.8501],[76.5343,19.8505],[76.5312,19.8618],[76.5344,19.8656],[76.5169,19.8742],[76.518,19.8783],[76.5064,19.8781],[76.5019,19.8888],[76.4927,19.8938],[76.4936,19.9202],[76.4629,19.9195],[76.4533,19.9233],[76.441,19.9172],[76.4051,19.9198],[76.402,19.9098],[76.3909,19.9046],[76.3845,19.9162],[76.3659,19.9286],[76.3548,19.9102],[76.3547,19.897],[76.3424,19.8945],[76.3364,19.8838],[76.3265,19.8861],[76.3154,19.8773],[76.3001,19.8776],[76.2931,19.8709],[76.2556,19.8764],[76.2296,19.8652],[76.1969,19.8655],[76.1818,19.8481],[76.1485,19.8561],[76.1478,19.8437],[76.1413,19.8439],[76.1355,19.8469],[76.1295,19.8651],[76.0977,19.857],[76.093,19.8721],[76.081,19.8807],[76.0812,19.9126],[76.059,19.9196],[76.0576,19.9299],[76.048,19.9357],[76.0525,19.9402],[76.0482,19.946],[76.0114,19.9537],[76.0114,19.9737],[75.989,19.974],[75.9881,19.9809],[75.9719,19.9827],[75.9627,19.995],[75.9657,20.0029],[75.986,20.0049],[76.0062,20.0125],[76.0109,20.0221],[76.0233,20.0244],[76.0189,20.0585],[76.0524,20.0623],[76.0697,20.073],[76.0628,20.0844],[76.0519,20.0854],[76.0559,20.0976],[76.0867,20.1005],[76.0917,20.0946],[76.0949,20.0966],[76.0986,20.1307],[76.1058,20.1328],[76.1096,20.1441],[76.1056,20.1533],[76.109,20.1625],[76.1195,20.1609],[76.1236,20.1737],[76.1337,20.1848],[76.1321,20.1987],[76.1452,20.1995],[76.15,20.2058],[76.1329,20.2223],[76.15,20.237],[76.1665,20.2383],[76.1697,20.2583],[76.1798,20.269],[76.1939,20.3002],[76.1723,20.3023],[76.1686,20.295],[76.1551,20.3028],[76.1409,20.3006],[76.1477,20.3107],[76.1362,20.3186],[76.1292,20.3174],[76.1237,20.3332],[76.128,20.3389],[76.1261,20.345],[76.1146,20.3461],[76.1081,20.3541],[76.0986,20.3545],[76.0996,20.3504],[76.0942,20.3473],[76.0897,20.3516],[76.093,20.3581],[76.0865,20.3598],[76.0857,20.3654],[76.0713,20.3491],[76.0467,20.3371],[76.0318,20.3075],[76.0285,20.2892],[76.0014,20.2907],[76.0044,20.3065],[75.9926,20.3108],[75.9753,20.3078],[75.9764,20.3145],[75.97,20.3159],[75.9496,20.2985],[75.929,20.3023],[75.9232,20.3207],[75.9339,20.3388],[75.9407,20.3422],[75.9415,20.369],[75.9577,20.3656],[75.9595,20.3719],[75.9667,20.373],[75.962,20.383],[75.9524,20.3871],[75.9411,20.4255],[75.9448,20.4432],[75.9549,20.4512],[75.9568,20.4646],[75.9522,20.4654],[75.9547,20.4731],[75.9485,20.4726],[75.9406,20.4987],[75.9492,20.5186],[75.9599,20.526],[75.9694,20.5231],[75.9713,20.538],[75.9557,20.5301],[75.9406,20.5355],[75.9398,20.5421],[75.932,20.5486],[75.9262,20.5459],[75.9183,20.5544],[75.8817,20.561],[75.8767,20.5526],[75.8606,20.5608],[75.884,20.5284],[75.8796,20.5228],[75.8719,20.5281],[75.8608,20.5238],[75.8591,20.5035],[75.8501,20.5009],[75.8485,20.4843],[75.8589,20.4814],[75.8617,20.4654],[75.8709,20.4613],[75.8702,20.4545],[75.894,20.4454],[75.8818,20.4449],[75.8778,20.4374],[75.8627,20.44],[75.8647,20.4464],[75.855,20.4602],[75.8409,20.4576],[75.827,20.471],[75.8197,20.472],[75.8114,20.4633],[75.7972,20.4614],[75.7947,20.4502],[75.7779,20.4552],[75.7644,20.452],[75.7556,20.4235],[75.7376,20.4194],[75.7328,20.4073],[75.7494,20.4022],[75.7458,20.3707],[75.7577,20.3685],[75.7708,20.3364],[75.7645,20.3365],[75.7612,20.3284],[75.754,20.3259],[75.7436,20.3262],[75.7426,20.335],[75.7335,20.3334],[75.73,20.3275],[75.7167,20.3305],[75.7079,20.3128],[75.682,20.3064],[75.6951,20.2822],[75.6902,20.2653],[75.6803,20.2592],[75.6746,20.2365],[75.6741,20.2312],[75.6801,20.229],[75.6817,20.211],[75.6783,20.1901],[75.6736,20.1839],[75.6461,20.1882],[75.6324,20.1193],[75.6242,20.1005],[75.5865,20.0981],[75.5888,20.0637],[75.5984,20.062],[75.6044,20.0535],[75.5885,20.0241],[75.5926,20.0065],[75.5982,20.0054],[75.5996,19.9997],[75.6225,20.0001],[75.6334,20.0118],[75.6446,20.0071],[75.6441,19.9755],[75.6558,19.9661],[75.6512,19.9499],[75.6577,19.9455],[75.6621,19.9497],[75.6694,19.9442],[75.6807,19.9246],[75.6777,19.9169],[75.6569,19.9127],[75.6451,19.8421],[75.6562,19.841],[75.6588,19.823],[75.654,19.8134],[75.6339,19.8117],[75.6415,19.793],[75.6452,19.7931],[75.6447,19.7801],[75.6342,19.7781],[75.6363,19.7723],[75.624,19.7726],[75.6255,19.7362],[75.6322,19.7348],[75.63,19.7076],[75.6255,19.704],[75.6318,19.676],[75.629,19.6583],[75.6054,19.6577],[75.6042,19.6433],[75.5854,19.6381]]]}},{"type":"Feature","properties":{"region":"sambhajinagar-district-2026","name":"Chhatrapati Sambhajinagar","nameMr":"छत्रपती संभाजीनगर"},"geometry":{"type":"MultiPolygon","coordinates":[[[[74.5889,19.7842],[74.5925,19.7762],[74.6084,19.7693],[74.6236,19.788],[74.6362,19.7928],[74.6485,19.7854],[74.6535,19.7765],[74.6681,19.7762],[74.6773,19.7669],[74.6899,19.7666],[74.6892,19.7574],[74.694,19.7552],[74.7064,19.7637],[74.702,19.777],[74.7075,19.782],[74.7146,19.7803],[74.7217,19.7549],[74.7283,19.7546],[74.7355,19.7651],[74.7496,19.7489],[74.7643,19.754],[74.7678,19.737],[74.7845,19.7347],[74.7868,19.7158],[74.8046,19.7026],[74.8144,19.7035],[74.8087,19.6889],[74.8181,19.681],[74.823,19.6688],[74.838,19.6626],[74.8492,19.6465],[74.8839,19.655],[74.8888,19.639],[74.9154,19.6483],[74.928,19.6468],[74.9325,19.6369],[74.9435,19.6461],[74.9622,19.6476],[74.9834,19.6394],[74.9997,19.6239],[75.0381,19.6257],[75.0422,19.6222],[75.0409,19.6118],[75.0575,19.6057],[75.0894,19.6117],[75.1007,19.6037],[75.115,19.6041],[75.1274,19.5945],[75.1406,19.5981],[75.1512,19.5892],[75.1745,19.6003],[75.1943,19.5948],[75.2068,19.5815],[75.2066,19.5621],[75.2179,19.5588],[75.2302,19.5414],[75.2571,19.5231],[75.2678,19.5546],[75.2744,19.5544],[75.281,19.5453],[75.2735,19.5155],[75.3016,19.5121],[75.3013,19.5032],[75.3121,19.4958],[75.3257,19.4991],[75.3242,19.5055],[75.3291,19.5084],[75.3277,19.4837],[75.3351,19.4827],[75.3364,19.488],[75.3445,19.4854],[75.3396,19.4687],[75.3234,19.4657],[75.3246,19.4439],[75.3272,19.4385],[75.3471,19.4489],[75.3572,19.4319],[75.3366,19.4084],[75.3393,19.4059],[75.3654,19.3985],[75.3914,19.4147],[75.4084,19.4187],[75.4249,19.4157],[75.4418,19.4266],[75.4429,19.4139],[75.4683,19.4154],[75.4853,19.4419],[75.4994,19.4313],[75.5073,19.431],[75.5068,19.4234],[75.5164,19.417],[75.517,19.4047],[75.5501,19.3866],[75.5859,19.378],[75.5971,19.3851],[75.6062,19.3836],[75.6127,19.425],[75.6034,19.4276],[75.6048,19.452],[75.6087,19.4523],[75.6141,19.4675],[75.6266,19.4606],[75.6317,19.4645],[75.6418,19.4962],[75.643,19.5387],[75.6469,19.5387],[75.6564,19.568],[75.6506,19.578],[75.6532,19.5857],[75.6495,19.5953],[75.5984,19.5999],[75.5854,19.6381],[75.6042,19.6433],[75.6054,19.6577],[75.629,19.6583],[75.6318,19.676],[75.6255,19.704],[75.63,19.7076],[75.6322,19.7348],[75.6255,19.7362],[75.624,19.7726],[75.6363,19.7723],[75.6342,19.7781],[75.6447,19.7801],[75.6452,19.7931],[75.6415,19.793],[75.6339,19.8117],[75.654,19.8134],[75.6588,19.823],[75.6562,19.841],[75.6451,19.8421],[75.6569,19.9127],[75.6777,19.9169],[75.6807,19.9246],[75.6694,19.9442],[75.6621,19.9497],[75.6577,19.9455],[75.6512,19.9499],[75.6558,19.9661],[75.6441,19.9755],[75.6446,20.0071],[75.6334,20.0118],[75.6225,20.0001],[75.5996,19.9997],[75.5982,20.0054],[75.5926,20.0065],[75.5885,20.0241],[75.6044,20.0535],[75.5984,20.062],[75.5888,20.0637],[75.5865,20.0981],[75.6242,20.1005],[75.6324,20.1193],[75.6461,20.1882],[75.6736,20.1839],[75.6783,20.1901],[75.6817,20.211],[75.6801,20.229],[75.6741,20.2312],[75.6746,20.2365],[75.6803,20.2592],[75.6902,20.2653],[75.6951,20.2822],[75.682,20.3064],[75.7079,20.3128],[75.7167,20.3305],[75.73,20.3275],[75.7335,20.3334],[75.7426,20.335],[75.7436,20.3262],[75.754,20.3259],[75.7612,20.3284],[75.7645,20.3365],[75.7708,20.3364],[75.7577,20.3685],[75.7458,20.3707],[75.7494,20.4022],[75.7328,20.4073],[75.7376,20.4194],[75.7556,20.4235],[75.7644,20.452],[75.7779,20.4552],[75.7947,20.4502],[75.7972,20.4614],[75.8114,20.4633],[75.8197,20.472],[75.827,20.471],[75.8409,20.4576],[75.855,20.4602],[75.8647,20.4464],[75.8627,20.44],[75.8778,20.4374],[75.8818,20.4449],[75.894,20.4454],[75.8702,20.4545],[75.8709,20.4613],[75.8617,20.4654],[75.8589,20.4814],[75.8494,20.4831],[75.8476,20.4882],[75.8501,20.5009],[75.8591,20.5035],[75.8608,20.5238],[75.8719,20.5281],[75.8796,20.5228],[75.8838,20.5271],[75.8606,20.5608],[75.8767,20.5526],[75.8869,20.5698],[75.8868,20.5924],[75.8689,20.5979],[75.8677,20.6196],[75.8548,20.6218],[75.8537,20.6128],[75.8369,20.6142],[75.8386,20.596],[75.8427,20.5928],[75.8327,20.592],[75.8328,20.5741],[75.8283,20.5713],[75.8474,20.5664],[75.8441,20.5626],[75.8314,20.5556],[75.8043,20.5674],[75.7984,20.5618],[75.7863,20.562],[75.7922,20.5816],[75.7815,20.5829],[75.7734,20.5748],[75.7569,20.5739],[75.7588,20.6107],[75.7543,20.6136],[75.731,20.607],[75.7215,20.6194],[75.7128,20.613],[75.6995,20.6142],[75.6955,20.6231],[75.7037,20.6591],[75.6672,20.6685],[75.6595,20.6643],[75.6547,20.6537],[75.6615,20.6413],[75.6585,20.6409],[75.66,20.6244],[75.6501,20.6249],[75.6464,20.617],[75.6054,20.6219],[75.6128,20.6029],[75.5973,20.6003],[75.5561,20.6086],[75.556,20.5985],[75.5524,20.5983],[75.5353,20.6062],[75.5329,20.5913],[75.521,20.5903],[75.5288,20.5561],[75.5159,20.5572],[75.5152,20.5502],[75.5047,20.551],[75.5068,20.5404],[75.4944,20.5382],[75.4934,20.5237],[75.4816,20.5349],[75.4805,20.5432],[75.4653,20.5431],[75.4624,20.5512],[75.4562,20.5508],[75.4609,20.5182],[75.4561,20.5138],[75.447,20.5372],[75.4236,20.5304],[75.429,20.5116],[75.4169,20.5135],[75.4071,20.522],[75.3959,20.5206],[75.3888,20.5778],[75.3648,20.575],[75.3586,20.596],[75.3545,20.5878],[75.3187,20.5916],[75.3149,20.5886],[75.3165,20.5746],[75.2927,20.5735],[75.2913,20.5665],[75.2777,20.5697],[75.2651,20.5667],[75.259,20.5766],[75.2497,20.5514],[75.241,20.5515],[75.2444,20.5361],[75.2351,20.5368],[75.2379,20.521],[75.2252,20.5156],[75.223,20.5002],[75.2265,20.4945],[75.2052,20.4991],[75.2087,20.492],[75.1973,20.4908],[75.1988,20.4758],[75.1596,20.4761],[75.1583,20.4556],[75.173,20.4565],[75.1744,20.4425],[75.1619,20.4401],[75.1535,20.4329],[75.1248,20.432],[75.124,20.4233],[75.106,20.4119],[75.1107,20.3949],[75.1165,20.3934],[75.1226,20.3633],[75.1164,20.322],[75.0822,20.3155],[75.0896,20.3322],[75.0748,20.3386],[75.0586,20.3373],[75.0546,20.3299],[75.0551,20.306],[75.0253,20.3187],[74.9998,20.3362],[74.9941,20.328],[75.0051,20.2939],[74.984,20.2946],[74.9834,20.3055],[74.9662,20.3069],[74.945,20.2881],[74.9543,20.2719],[74.935,20.2701],[74.9332,20.2513],[74.9053,20.2473],[74.9078,20.2192],[74.9286,20.2175],[74.9283,20.1849],[74.9219,20.1756],[74.9302,20.1597],[74.9282,20.1545],[74.9069,20.155],[74.9071,20.1676],[74.8986,20.169],[74.8957,20.1803],[74.8546,20.1797],[74.8519,20.214],[74.8553,20.2304],[74.8293,20.2355],[74.8284,20.2463],[74.8182,20.2504],[74.807,20.2466],[74.8019,20.2382],[74.7819,20.2344],[74.7856,20.2286],[74.8,20.2328],[74.7828,20.2063],[74.7619,20.2049],[74.7562,20.1982],[74.7601,20.1846],[74.7346,20.1889],[74.7342,20.1977],[74.7305,20.1923],[74.7196,20.193],[74.7213,20.1872],[74.7116,20.1733],[74.7172,20.1594],[74.7141,20.1335],[74.7086,20.1352],[74.7114,20.1286],[74.7056,20.1235],[74.7099,20.1223],[74.7036,20.1148],[74.7303,20.1147],[74.7364,20.0808],[74.7095,20.0799],[74.7205,20.0542],[74.7065,20.0415],[74.7178,20.0181],[74.6948,20.017],[74.6893,20.0108],[74.6884,19.9948],[74.6818,19.9892],[74.6853,19.9686],[74.6744,19.9659],[74.671,19.9594],[74.6721,19.9315],[74.6772,19.9307],[74.6771,19.9242],[74.6494,19.9201],[74.6446,19.8602],[74.6599,19.8577],[74.657,19.8349],[74.603,19.8469],[74.6,19.8066],[74.5889,19.7842]]],[[[75.9303,20.5493],[75.9398,20.5421],[75.9406,20.5355],[75.9557,20.5301],[75.9713,20.538],[75.9709,20.5328],[75.9779,20.5298],[75.9907,20.5311],[75.9921,20.5357],[76.0002,20.5295],[76.0085,20.5387],[76.0097,20.5331],[76.0179,20.5303],[76.0156,20.5509],[76.0362,20.5548],[76.0364,20.572],[76.0427,20.5792],[76.0366,20.5876],[76.0401,20.6064],[76.0303,20.6236],[76.0321,20.6369],[76.0241,20.6392],[76.0217,20.6457],[76.0077,20.6441],[76.0062,20.63],[75.9861,20.6165],[75.9563,20.6199],[75.9539,20.6012],[75.9318,20.5958],[75.9351,20.5876],[75.9303,20.5493]]]]}}]}
