{
  "type": "FeatureCollection",
  "features": [
    {
      "type": "Feature",
      "properties": {
        "id": "P001",
        "refAreaHa": 73.67
      },
      "geometry": {
        "type": "Polygon",
        "coordinates": [
          [
            [
              76.577098,
              18.371043
            ],
            [
              76.577,
              18.370773
            ],
            [
              76.576811,
              18.370775
            ],
            [
              76.57681,
              18.370594
            ],
            [
              76.576523,
              18.370325
            ],
            [
              76.576612,
              18.369692
            ],
            [
              76.576517,
              18.369693
            ],
            [
              76.576419,
              18.369242
            ],
            [
              76.575561,
              18.368617
            ],
            [
              76.575278,
              18.368619
            ],
            [
              76.575091,
              18.368892
            ],
            [
              76.573483,
              18.368995
            ],
            [
              76.573387,
              18.368906
            ],
            [
              76.573388,
              18.368996
            ],
            [
              76.573199,
              18.368998
            ],
            [
              76.573008,
              18.368818
            ],
            [
              76.572724,
              18.368821
            ],
            [
              76.572628,
              18.368641
            ],
            [
              76.572344,
              18.368643
            ],
            [
              76.572248,
              18.368463
            ],
            [
              76.571491,
              18.36847
            ],
            [
              76.571489,
              18.368289
            ],
            [
              76.571678,
              18.368197
            ],
            [
              76.571581,
              18.367927
            ],
            [
              76.570728,
              18.367843
            ],
            [
              76.570442,
              18.367575
            ],
            [
              76.570253,
              18.367576
            ],
            [
              76.57016,
              18.367758
            ],
            [
              76.569026,
              18.367948
            ],
            [
              76.569027,
              18.368038
            ],
            [
              76.568931,
              18.367948
            ],
            [
              76.568837,
              18.36804
            ],
            [
              76.56808,
              18.367956
            ],
            [
              76.568079,
              18.367865
            ],
            [
              76.56789,
              18.367957
            ],
            [
              76.567605,
              18.367779
            ],
            [
              76.567603,
              18.367598
            ],
            [
              76.567698,
              18.367597
            ],
            [
              76.567598,
              18.367056
            ],
            [
              76.567407,
              18.366877
            ],
            [
              76.56703,
              18.36697
            ],
            [
              76.567026,
              18.366609
            ],
            [
              76.566649,
              18.366702
            ],
            [
              76.566652,
              18.367064
            ],
            [
              76.566937,
              18.367152
            ],
            [
              76.566938,
              18.367332
            ],
            [
              76.567415,
              18.36778
            ],
            [
              76.566564,
              18.367787
            ],
            [
              76.566562,
              18.367607
            ],
            [
              76.566277,
              18.367428
            ],
            [
              76.566273,
              18.367067
            ],
            [
              76.565321,
              18.366352
            ],
            [
              76.563809,
              18.366635
            ],
            [
              76.563712,
              18.366365
            ],
            [
              76.563523,
              18.366367
            ],
            [
              76.56352,
              18.366005
            ],
            [
              76.563232,
              18.365646
            ],
            [
              76.56342,
              18.365464
            ],
            [
              76.563323,
              18.365194
            ],
            [
              76.563605,
              18.365011
            ],
            [
              76.564267,
              18.364915
            ],
            [
              76.564265,
              18.364734
            ],
            [
              76.564643,
              18.364641
            ],
            [
              76.564645,
              18.364821
            ],
            [
              76.564833,
              18.364729
            ],
            [
              76.564834,
              18.36482
            ],
            [
              76.565118,
              18.364817
            ],
            [
              76.565119,
              18.364998
            ],
            [
              76.565972,
              18.365172
            ],
            [
              76.566544,
              18.365619
            ],
            [
              76.566922,
              18.365525
            ],
            [
              76.566923,
              18.365616
            ],
            [
              76.567112,
              18.365614
            ],
            [
              76.567393,
              18.365341
            ],
            [
              76.567866,
              18.365247
            ],
            [
              76.567959,
              18.365065
            ],
            [
              76.568149,
              18.365154
            ],
            [
              76.56843,
              18.364881
            ],
            [
              76.568615,
              18.364427
            ],
            [
              76.570226,
              18.364595
            ],
            [
              76.570222,
              18.364233
            ],
            [
              76.57041,
              18.364051
            ],
            [
              76.571736,
              18.364221
            ],
            [
              76.571736,
              18.36413
            ],
            [
              76.572303,
              18.364126
            ],
            [
              76.572302,
              18.364035
            ],
            [
              76.57287,
              18.364031
            ],
            [
              76.572966,
              18.364211
            ],
            [
              76.57325,
              18.364208
            ],
            [
              76.573249,
              18.364028
            ],
            [
              76.573438,
              18.364026
            ],
            [
              76.573531,
              18.363845
            ],
            [
              76.573815,
              18.363842
            ],
            [
              76.574002,
              18.36366
            ],
            [
              76.575139,
              18.363831
            ],
            [
              76.575139,
              18.363741
            ],
            [
              76.575611,
              18.363647
            ],
            [
              76.575609,
              18.363466
            ],
            [
              76.575799,
              18.363464
            ],
            [
              76.575986,
              18.363282
            ],
            [
              76.575984,
              18.363101
            ],
            [
              76.576173,
              18.363009
            ],
            [
              76.576075,
              18.362649
            ],
            [
              76.57598,
              18.36265
            ],
            [
              76.575979,
              18.362469
            ],
            [
              76.576166,
              18.362287
            ],
            [
              76.57645,
              18.362284
            ],
            [
              76.576451,
              18.362375
            ],
            [
              76.576639,
              18.362283
            ],
            [
              76.576641,
              18.362463
            ],
            [
              76.576735,
              18.362372
            ],
            [
              76.577303,
              18.362458
            ],
            [
              76.5774,
              18.362638
            ],
            [
              76.577684,
              18.362636
            ],
            [
              76.577591,
              18.362907
            ],
            [
              76.577971,
              18.362995
            ],
            [
              76.577882,
              18.363628
            ],
            [
              76.578072,
              18.363717
            ],
            [
              76.578074,
              18.363988
            ],
            [
              76.578549,
              18.364164
            ],
            [
              76.578551,
              18.364345
            ],
            [
              76.578456,
              18.364346
            ],
            [
              76.578557,
              18.365068
            ],
            [
              76.578368,
              18.365069
            ],
            [
              76.578278,
              18.365612
            ],
            [
              76.578469,
              18.365791
            ],
            [
              76.578472,
              18.366063
            ],
            [
              76.578663,
              18.366332
            ],
            [
              76.578571,
              18.366604
            ],
            [
              76.578666,
              18.366603
            ],
            [
              76.578668,
              18.366874
            ],
            [
              76.578859,
              18.367053
            ],
            [
              76.578863,
              18.367415
            ],
            [
              76.579053,
              18.367594
            ],
            [
              76.579056,
              18.367865
            ],
            [
              76.579245,
              18.367863
            ],
            [
              76.579248,
              18.368134
            ],
            [
              76.579342,
              18.368133
            ],
            [
              76.57925,
              18.368405
            ],
            [
              76.579442,
              18.368675
            ],
            [
              76.579445,
              18.369036
            ],
            [
              76.579635,
              18.369125
            ],
            [
              76.579543,
              18.369397
            ],
            [
              76.579733,
              18.369486
            ],
            [
              76.579736,
              18.369757
            ],
            [
              76.579545,
              18.369668
            ],
            [
              76.579453,
              18.36994
            ],
            [
              76.579264,
              18.369941
            ],
            [
              76.5787,
              18.370307
            ],
            [
              76.578133,
              18.370402
            ],
            [
              76.578041,
              18.370674
            ],
            [
              76.577571,
              18.37104
            ],
            [
              76.577475,
              18.37095
            ],
            [
              76.577098,
              18.371043
            ]
          ],
          [
            [
              76.578597,
              18.369405
            ],
            [
              76.57888,
              18.369312
            ],
            [
              76.578783,
              18.369042
            ],
            [
              76.5785,
              18.369134
            ],
            [
              76.578597,
              18.369405
            ]
          ],
          [
            [
              76.569,
              18.365147
            ],
            [
              76.56919,
              18.365145
            ],
            [
              76.569187,
              18.364874
            ],
            [
              76.568998,
              18.364876
            ],
            [
              76.569,
              18.365147
            ]
          ]
        ]
      }
    },
    {
      "type": "Feature",
      "properties": {
        "id": "P002",
        "refAreaHa": 26.28
      },
      "geometry": {
        "type": "Polygon",
        "coordinates": [
          [
            [
              76.535521,
              18.37807
            ],
            [
              76.535324,
              18.377258
            ],
            [
              76.534946,
              18.377261
            ],
            [
              76.534947,
              18.377442
            ],
            [
              76.534475,
              18.377536
            ],
            [
              76.534476,
              18.377626
            ],
            [
              76.533907,
              18.377541
            ],
            [
              76.533814,
              18.377722
            ],
            [
              76.533058,
              18.377819
            ],
            [
              76.532776,
              18.378002
            ],
            [
              76.532303,
              18.378005
            ],
            [
              76.5323,
              18.377734
            ],
            [
              76.532679,
              18.377731
            ],
            [
              76.532678,
              18.377641
            ],
            [
              76.533057,
              18.377728
            ],
            [
              76.533148,
              18.377276
            ],
            [
              76.533433,
              18.377364
            ],
            [
              76.533619,
              18.377091
            ],
            [
              76.53428,
              18.376905
            ],
            [
              76.534372,
              18.376633
            ],
            [
              76.533994,
              18.376636
            ],
            [
              76.533996,
              18.376817
            ],
            [
              76.533712,
              18.376819
            ],
            [
              76.533712,
              18.37691
            ],
            [
              76.533429,
              18.376912
            ],
            [
              76.533146,
              18.377095
            ],
            [
              76.532768,
              18.377098
            ],
            [
              76.532485,
              18.377281
            ],
            [
              76.532485,
              18.377191
            ],
            [
              76.532012,
              18.377194
            ],
            [
              76.532105,
              18.377013
            ],
            [
              76.532482,
              18.37692
            ],
            [
              76.532575,
              18.376648
            ],
            [
              76.532291,
              18.37665
            ],
            [
              76.532009,
              18.376923
            ],
            [
              76.53182,
              18.376925
            ],
            [
              76.531917,
              18.377195
            ],
            [
              76.531822,
              18.377196
            ],
            [
              76.531824,
              18.377377
            ],
            [
              76.531635,
              18.377378
            ],
            [
              76.531725,
              18.376926
            ],
            [
              76.531346,
              18.376838
            ],
            [
              76.531345,
              18.376748
            ],
            [
              76.531534,
              18.376656
            ],
            [
              76.531532,
              18.376476
            ],
            [
              76.532004,
              18.376381
            ],
            [
              76.531909,
              18.376292
            ],
            [
              76.532,
              18.375839
            ],
            [
              76.53181,
              18.375841
            ],
            [
              76.531807,
              18.375479
            ],
            [
              76.531996,
              18.375478
            ],
            [
              76.532371,
              18.375023
            ],
            [
              76.532656,
              18.375111
            ],
            [
              76.532654,
              18.37493
            ],
            [
              76.533031,
              18.374747
            ],
            [
              76.533028,
              18.374476
            ],
            [
              76.533312,
              18.374383
            ],
            [
              76.533309,
              18.374112
            ],
            [
              76.533593,
              18.37411
            ],
            [
              76.533969,
              18.373836
            ],
            [
              76.534348,
              18.373832
            ],
            [
              76.534346,
              18.373652
            ],
            [
              76.534725,
              18.373649
            ],
            [
              76.534721,
              18.373197
            ],
            [
              76.53491,
              18.373195
            ],
            [
              76.534812,
              18.372835
            ],
            [
              76.53519,
              18.372741
            ],
            [
              76.535187,
              18.37247
            ],
            [
              76.53547,
              18.372378
            ],
            [
              76.535663,
              18.372738
            ],
            [
              76.535948,
              18.372826
            ],
            [
              76.535851,
              18.372555
            ],
            [
              76.536418,
              18.37246
            ],
            [
              76.536419,
              18.372641
            ],
            [
              76.536608,
              18.37264
            ],
            [
              76.536796,
              18.372457
            ],
            [
              76.537086,
              18.373178
            ],
            [
              76.537369,
              18.373085
            ],
            [
              76.537373,
              18.373447
            ],
            [
              76.537467,
              18.373446
            ],
            [
              76.537575,
              18.374891
            ],
            [
              76.537669,
              18.37489
            ],
            [
              76.537675,
              18.375522
            ],
            [
              76.53777,
              18.375522
            ],
            [
              76.537778,
              18.376425
            ],
            [
              76.537588,
              18.376427
            ],
            [
              76.537401,
              18.376609
            ],
            [
              76.537403,
              18.37688
            ],
            [
              76.537308,
              18.376881
            ],
            [
              76.537405,
              18.377151
            ],
            [
              76.537216,
              18.377153
            ],
            [
              76.537219,
              18.377424
            ],
            [
              76.537029,
              18.377425
            ],
            [
              76.536939,
              18.377878
            ],
            [
              76.536654,
              18.37779
            ],
            [
              76.536467,
              18.378062
            ],
            [
              76.536278,
              18.378064
            ],
            [
              76.536277,
              18.377973
            ],
            [
              76.535521,
              18.37807
            ]
          ],
          [
            [
              76.536652,
              18.377609
            ],
            [
              76.536841,
              18.377517
            ],
            [
              76.536745,
              18.377337
            ],
            [
              76.536556,
              18.377429
            ],
            [
              76.536652,
              18.377609
            ]
          ],
          [
            [
              76.535893,
              18.377344
            ],
            [
              76.535988,
              18.377343
            ],
            [
              76.535987,
              18.377253
            ],
            [
              76.535892,
              18.377254
            ],
            [
              76.535893,
              18.377344
            ]
          ],
          [
            [
              76.535479,
              18.373372
            ],
            [
              76.535574,
              18.373371
            ],
            [
              76.535572,
              18.3731
            ],
            [
              76.535381,
              18.373011
            ],
            [
              76.535288,
              18.373192
            ],
            [
              76.535479,
              18.373372
            ]
          ]
        ]
      }
    },
    {
      "type": "Feature",
      "properties": {
        "id": "P003",
        "refAreaHa": 13.0
      },
      "geometry": {
        "type": "Polygon",
        "coordinates": [
          [
            [
              76.559848,
              18.473107
            ],
            [
              76.559847,
              18.473016
            ],
            [
              76.559468,
              18.473019
            ],
            [
              76.559086,
              18.472661
            ],
            [
              76.558897,
              18.472663
            ],
            [
              76.558895,
              18.472482
            ],
            [
              76.55861,
              18.472304
            ],
            [
              76.558512,
              18.471943
            ],
            [
              76.558321,
              18.471854
            ],
            [
              76.55832,
              18.471673
            ],
            [
              76.558033,
              18.471314
            ],
            [
              76.557932,
              18.470683
            ],
            [
              76.557741,
              18.470504
            ],
            [
              76.557739,
              18.470233
            ],
            [
              76.557452,
              18.469964
            ],
            [
              76.557451,
              18.469783
            ],
            [
              76.556782,
              18.469156
            ],
            [
              76.55678,
              18.468975
            ],
            [
              76.555635,
              18.467991
            ],
            [
              76.555256,
              18.467904
            ],
            [
              76.555065,
              18.467725
            ],
            [
              76.554781,
              18.467727
            ],
            [
              76.55478,
              18.467637
            ],
            [
              76.553358,
              18.467467
            ],
            [
              76.553359,
              18.467558
            ],
            [
              76.553075,
              18.46756
            ],
            [
              76.553076,
              18.46765
            ],
            [
              76.551944,
              18.468112
            ],
            [
              76.551945,
              18.468292
            ],
            [
              76.551475,
              18.468658
            ],
            [
              76.551478,
              18.468929
            ],
            [
              76.551194,
              18.468931
            ],
            [
              76.551191,
              18.46866
            ],
            [
              76.551002,
              18.468661
            ],
            [
              76.551001,
              18.468571
            ],
            [
              76.55138,
              18.468568
            ],
            [
              76.551473,
              18.468386
            ],
            [
              76.551662,
              18.468385
            ],
            [
              76.551754,
              18.468113
            ],
            [
              76.552038,
              18.46802
            ],
            [
              76.55194,
              18.46766
            ],
            [
              76.552599,
              18.467293
            ],
            [
              76.552788,
              18.467291
            ],
            [
              76.552789,
              18.467382
            ],
            [
              76.553072,
              18.467199
            ],
            [
              76.554777,
              18.467275
            ],
            [
              76.554873,
              18.467455
            ],
            [
              76.555537,
              18.46754
            ],
            [
              76.555823,
              18.467809
            ],
            [
              76.556012,
              18.467807
            ],
            [
              76.556109,
              18.467987
            ],
            [
              76.556298,
              18.467985
            ],
            [
              76.55668,
              18.468344
            ],
            [
              76.556682,
              18.468524
            ],
            [
              76.557349,
              18.469061
            ],
            [
              76.557351,
              18.469242
            ],
            [
              76.557637,
              18.46942
            ],
            [
              76.557638,
              18.469601
            ],
            [
              76.557829,
              18.46969
            ],
            [
              76.557926,
              18.47005
            ],
            [
              76.558117,
              18.470139
            ],
            [
              76.558215,
              18.4705
            ],
            [
              76.558405,
              18.470588
            ],
            [
              76.558408,
              18.47095
            ],
            [
              76.558503,
              18.470949
            ],
            [
              76.558601,
              18.47131
            ],
            [
              76.558791,
              18.471398
            ],
            [
              76.558794,
              18.47176
            ],
            [
              76.55908,
              18.471938
            ],
            [
              76.559273,
              18.472388
            ],
            [
              76.559939,
              18.472744
            ],
            [
              76.560697,
              18.472738
            ],
            [
              76.561168,
              18.472463
            ],
            [
              76.56164,
              18.472369
            ],
            [
              76.561828,
              18.472187
            ],
            [
              76.561826,
              18.472006
            ],
            [
              76.562203,
              18.471822
            ],
            [
              76.562202,
              18.471641
            ],
            [
              76.56258,
              18.471548
            ],
            [
              76.562767,
              18.471275
            ],
            [
              76.563522,
              18.471088
            ],
            [
              76.564276,
              18.47063
            ],
            [
              76.56456,
              18.470628
            ],
            [
              76.564653,
              18.470447
            ],
            [
              76.565031,
              18.470353
            ],
            [
              76.565218,
              18.470081
            ],
            [
              76.565407,
              18.470079
            ],
            [
              76.5655,
              18.469897
            ],
            [
              76.565784,
              18.469895
            ],
            [
              76.565877,
              18.469714
            ],
            [
              76.566726,
              18.469345
            ],
            [
              76.566819,
              18.469164
            ],
            [
              76.567103,
              18.469161
            ],
            [
              76.567196,
              18.46898
            ],
            [
              76.56748,
              18.468978
            ],
            [
              76.567479,
              18.468887
            ],
            [
              76.567763,
              18.468885
            ],
            [
              76.568046,
              18.468702
            ],
            [
              76.568897,
              18.468604
            ],
            [
              76.569368,
              18.468329
            ],
            [
              76.569841,
              18.468326
            ],
            [
              76.570312,
              18.468051
            ],
            [
              76.571542,
              18.46786
            ],
            [
              76.571541,
              18.467769
            ],
            [
              76.571919,
              18.467766
            ],
            [
              76.571919,
              18.467676
            ],
            [
              76.572392,
              18.467672
            ],
            [
              76.572957,
              18.467306
            ],
            [
              76.57343,
              18.467302
            ],
            [
              76.573429,
              18.467212
            ],
            [
              76.573997,
              18.467116
            ],
            [
              76.573996,
              18.467026
            ],
            [
              76.574281,
              18.467114
            ],
            [
              76.574379,
              18.467565
            ],
            [
              76.574095,
              18.467567
            ],
            [
              76.573908,
              18.46775
            ],
            [
              76.572962,
              18.467848
            ],
            [
              76.572963,
              18.467938
            ],
            [
              76.572584,
              18.467941
            ],
            [
              76.572585,
              18.468032
            ],
            [
              76.572206,
              18.468035
            ],
            [
              76.572207,
              18.468125
            ],
            [
              76.571355,
              18.468223
            ],
            [
              76.571356,
              18.468313
            ],
            [
              76.570788,
              18.468318
            ],
            [
              76.570789,
              18.468408
            ],
            [
              76.570505,
              18.46841
            ],
            [
              76.570506,
              18.468501
            ],
            [
              76.570222,
              18.468503
            ],
            [
              76.569939,
              18.468686
            ],
            [
              76.569183,
              18.468783
            ],
            [
              76.56909,
              18.468964
            ],
            [
              76.568522,
              18.469059
            ],
            [
              76.568523,
              18.46915
            ],
            [
              76.568239,
              18.469152
            ],
            [
              76.568146,
              18.469333
            ],
            [
              76.567862,
              18.469336
            ],
            [
              76.567486,
              18.46961
            ],
            [
              76.567012,
              18.469524
            ],
            [
              76.567013,
              18.469704
            ],
            [
              76.56673,
              18.469797
            ],
            [
              76.566637,
              18.469978
            ],
            [
              76.565505,
              18.47044
            ],
            [
              76.565412,
              18.470621
            ],
            [
              76.565128,
              18.470623
            ],
            [
              76.565035,
              18.470805
            ],
            [
              76.564657,
              18.470898
            ],
            [
              76.564658,
              18.470989
            ],
            [
              76.564374,
              18.470991
            ],
            [
              76.564281,
              18.471173
            ],
            [
              76.563997,
              18.471175
            ],
            [
              76.563432,
              18.471541
            ],
            [
              76.563242,
              18.471543
            ],
            [
              76.562491,
              18.472181
            ],
            [
              76.562113,
              18.472275
            ],
            [
              76.561926,
              18.472547
            ],
            [
              76.561359,
              18.472733
            ],
            [
              76.56136,
              18.472823
            ],
            [
              76.560887,
              18.472827
            ],
            [
              76.560794,
              18.473008
            ],
            [
              76.559848,
              18.473107
            ]
          ]
        ]
      }
    },
    {
      "type": "Feature",
      "properties": {
        "id": "P004",
        "refAreaHa": 9.85
      },
      "geometry": {
        "type": "Polygon",
        "coordinates": [
          [
            [
              76.47823,
              18.396234
            ],
            [
              76.477753,
              18.395786
            ],
            [
              76.477563,
              18.395787
            ],
            [
              76.477372,
              18.395518
            ],
            [
              76.477183,
              18.395609
            ],
            [
              76.477182,
              18.395429
            ],
            [
              76.476992,
              18.39534
            ],
            [
              76.47708,
              18.394616
            ],
            [
              76.476889,
              18.394437
            ],
            [
              76.477078,
              18.394435
            ],
            [
              76.476979,
              18.393894
            ],
            [
              76.477074,
              18.393893
            ],
            [
              76.477071,
              18.393532
            ],
            [
              76.477259,
              18.39344
            ],
            [
              76.477546,
              18.393709
            ],
            [
              76.477548,
              18.39398
            ],
            [
              76.477737,
              18.393979
            ],
            [
              76.477738,
              18.394069
            ],
            [
              76.478494,
              18.393973
            ],
            [
              76.47878,
              18.394242
            ],
            [
              76.479064,
              18.394149
            ],
            [
              76.479064,
              18.394239
            ],
            [
              76.479348,
              18.394237
            ],
            [
              76.479536,
              18.394055
            ],
            [
              76.479535,
              18.393874
            ],
            [
              76.479818,
              18.393872
            ],
            [
              76.479715,
              18.392879
            ],
            [
              76.479903,
              18.392697
            ],
            [
              76.479899,
              18.392245
            ],
            [
              76.480089,
              18.392243
            ],
            [
              76.480185,
              18.392514
            ],
            [
              76.480375,
              18.392512
            ],
            [
              76.480946,
              18.392869
            ],
            [
              76.481047,
              18.393682
            ],
            [
              76.481238,
              18.393861
            ],
            [
              76.481427,
              18.39386
            ],
            [
              76.481429,
              18.39404
            ],
            [
              76.481334,
              18.394041
            ],
            [
              76.481432,
              18.394402
            ],
            [
              76.480772,
              18.394678
            ],
            [
              76.480679,
              18.394859
            ],
            [
              76.480489,
              18.394861
            ],
            [
              76.480302,
              18.395133
            ],
            [
              76.480113,
              18.395135
            ],
            [
              76.479738,
              18.395499
            ],
            [
              76.479548,
              18.395501
            ],
            [
              76.479455,
              18.395682
            ],
            [
              76.479266,
              18.395684
            ],
            [
              76.479268,
              18.395864
            ],
            [
              76.479078,
              18.395866
            ],
            [
              76.478703,
              18.39623
            ],
            [
              76.47823,
              18.396234
            ]
          ],
          [
            [
              76.480663,
              18.393052
            ],
            [
              76.480758,
              18.393052
            ],
            [
              76.480756,
              18.392871
            ],
            [
              76.480662,
              18.392872
            ],
            [
              76.480663,
              18.393052
            ]
          ]
        ]
      }
    },
    {
      "type": "Feature",
      "properties": {
        "id": "P005",
        "refAreaHa": 7.74
      },
      "geometry": {
        "type": "Polygon",
        "coordinates": [
          [
            [
              76.475307,
              18.408726
            ],
            [
              76.475306,
              18.408545
            ],
            [
              76.475116,
              18.408456
            ],
            [
              76.475114,
              18.408276
            ],
            [
              76.475209,
              18.408275
            ],
            [
              76.475111,
              18.407914
            ],
            [
              76.474071,
              18.408103
            ],
            [
              76.474071,
              18.408013
            ],
            [
              76.473881,
              18.408014
            ],
            [
              76.473784,
              18.407653
            ],
            [
              76.473689,
              18.407654
            ],
            [
              76.47369,
              18.407835
            ],
            [
              76.473501,
              18.407836
            ],
            [
              76.473499,
              18.407565
            ],
            [
              76.473215,
              18.407567
            ],
            [
              76.473213,
              18.407387
            ],
            [
              76.473308,
              18.407386
            ],
            [
              76.473208,
              18.406754
            ],
            [
              76.473396,
              18.406662
            ],
            [
              76.4734,
              18.407024
            ],
            [
              76.473683,
              18.407022
            ],
            [
              76.473774,
              18.406569
            ],
            [
              76.473585,
              18.406571
            ],
            [
              76.473487,
              18.40612
            ],
            [
              76.473203,
              18.406122
            ],
            [
              76.473201,
              18.405941
            ],
            [
              76.473012,
              18.405943
            ],
            [
              76.473105,
              18.405761
            ],
            [
              76.472916,
              18.405763
            ],
            [
              76.472914,
              18.405582
            ],
            [
              76.473103,
              18.40558
            ],
            [
              76.473103,
              18.40549
            ],
            [
              76.473008,
              18.405491
            ],
            [
              76.473006,
              18.40531
            ],
            [
              76.47367,
              18.405395
            ],
            [
              76.473857,
              18.405213
            ],
            [
              76.473859,
              18.405394
            ],
            [
              76.474048,
              18.405392
            ],
            [
              76.474046,
              18.405121
            ],
            [
              76.47433,
              18.405119
            ],
            [
              76.474331,
              18.4053
            ],
            [
              76.474521,
              18.405298
            ],
            [
              76.474521,
              18.405389
            ],
            [
              76.474899,
              18.405295
            ],
            [
              76.4749,
              18.405386
            ],
            [
              76.475279,
              18.405383
            ],
            [
              76.475279,
              18.405473
            ],
            [
              76.475563,
              18.405471
            ],
            [
              76.475755,
              18.405741
            ],
            [
              76.475944,
              18.405739
            ],
            [
              76.475589,
              18.408453
            ],
            [
              76.475494,
              18.408453
            ],
            [
              76.475496,
              18.408724
            ],
            [
              76.475307,
              18.408726
            ]
          ],
          [
            [
              76.473871,
              18.40684
            ],
            [
              76.473966,
              18.406839
            ],
            [
              76.473965,
              18.406748
            ],
            [
              76.47387,
              18.406749
            ],
            [
              76.473871,
              18.40684
            ]
          ],
          [
            [
              76.47406,
              18.406748
            ],
            [
              76.474154,
              18.406747
            ],
            [
              76.474154,
              18.406657
            ],
            [
              76.474059,
              18.406657
            ],
            [
              76.47406,
              18.406748
            ]
          ]
        ]
      }
    },
    {
      "type": "Feature",
      "properties": {
        "id": "P006",
        "refAreaHa": 7.1
      },
      "geometry": {
        "type": "Polygon",
        "coordinates": [
          [
            [
              76.483454,
              18.3652
            ],
            [
              76.483452,
              18.364929
            ],
            [
              76.483546,
              18.364928
            ],
            [
              76.48345,
              18.364748
            ],
            [
              76.483262,
              18.364931
            ],
            [
              76.483073,
              18.364932
            ],
            [
              76.482787,
              18.364663
            ],
            [
              76.482975,
              18.364481
            ],
            [
              76.482785,
              18.364482
            ],
            [
              76.482688,
              18.364122
            ],
            [
              76.482593,
              18.364123
            ],
            [
              76.482488,
              18.362949
            ],
            [
              76.482394,
              18.362949
            ],
            [
              76.482391,
              18.362678
            ],
            [
              76.482107,
              18.36259
            ],
            [
              76.482105,
              18.362409
            ],
            [
              76.482576,
              18.362135
            ],
            [
              76.485034,
              18.361845
            ],
            [
              76.485131,
              18.362115
            ],
            [
              76.484942,
              18.362207
            ],
            [
              76.484944,
              18.362387
            ],
            [
              76.485039,
              18.362387
            ],
            [
              76.485044,
              18.363019
            ],
            [
              76.485234,
              18.363108
            ],
            [
              76.485236,
              18.363379
            ],
            [
              76.484575,
              18.363475
            ],
            [
              76.484489,
              18.364469
            ],
            [
              76.484205,
              18.364471
            ],
            [
              76.484014,
              18.364292
            ],
            [
              76.483922,
              18.364564
            ],
            [
              76.483638,
              18.364657
            ],
            [
              76.483642,
              18.365018
            ],
            [
              76.483454,
              18.3652
            ]
          ],
          [
            [
              76.483349,
              18.364026
            ],
            [
              76.483537,
              18.363844
            ],
            [
              76.483348,
              18.363846
            ],
            [
              76.483349,
              18.364026
            ]
          ],
          [
            [
              76.484106,
              18.36402
            ],
            [
              76.484201,
              18.36402
            ],
            [
              76.484199,
              18.363839
            ],
            [
              76.48401,
              18.36384
            ],
            [
              76.484106,
              18.36402
            ]
          ]
        ]
      }
    },
    {
      "type": "Feature",
      "properties": {
        "id": "P007",
        "refAreaHa": 4.96
      },
      "geometry": {
        "type": "Polygon",
        "coordinates": [
          [
            [
              76.505321,
              18.474813
            ],
            [
              76.50531,
              18.473548
            ],
            [
              76.505405,
              18.473547
            ],
            [
              76.505401,
              18.473186
            ],
            [
              76.505496,
              18.473185
            ],
            [
              76.505494,
              18.472914
            ],
            [
              76.505682,
              18.472732
            ],
            [
              76.505679,
              18.47246
            ],
            [
              76.505774,
              18.47246
            ],
            [
              76.505959,
              18.471916
            ],
            [
              76.506147,
              18.471824
            ],
            [
              76.506426,
              18.47119
            ],
            [
              76.506802,
              18.470916
            ],
            [
              76.506894,
              18.470553
            ],
            [
              76.507364,
              18.470188
            ],
            [
              76.507362,
              18.470007
            ],
            [
              76.507552,
              18.470006
            ],
            [
              76.507739,
              18.469733
            ],
            [
              76.508023,
              18.469731
            ],
            [
              76.50812,
              18.470001
            ],
            [
              76.507931,
              18.470093
            ],
            [
              76.507934,
              18.470455
            ],
            [
              76.507746,
              18.470637
            ],
            [
              76.507748,
              18.470818
            ],
            [
              76.507185,
              18.471364
            ],
            [
              76.507,
              18.471908
            ],
            [
              76.506624,
              18.472272
            ],
            [
              76.50654,
              18.473448
            ],
            [
              76.506352,
              18.47363
            ],
            [
              76.506261,
              18.474082
            ],
            [
              76.505979,
              18.474265
            ],
            [
              76.505981,
              18.474536
            ],
            [
              76.505794,
              18.474719
            ],
            [
              76.505509,
              18.47463
            ],
            [
              76.505321,
              18.474813
            ]
          ],
          [
            [
              76.507742,
              18.470095
            ],
            [
              76.507931,
              18.470093
            ],
            [
              76.50793,
              18.469913
            ],
            [
              76.507742,
              18.470095
            ]
          ]
        ]
      }
    },
    {
      "type": "Feature",
      "properties": {
        "id": "P008",
        "refAreaHa": 3.6
      },
      "geometry": {
        "type": "Polygon",
        "coordinates": [
          [
            [
              76.486446,
              18.383068
            ],
            [
              76.48635,
              18.382888
            ],
            [
              76.485971,
              18.382891
            ],
            [
              76.485874,
              18.38262
            ],
            [
              76.48559,
              18.382623
            ],
            [
              76.485499,
              18.382985
            ],
            [
              76.485404,
              18.382986
            ],
            [
              76.485402,
              18.382714
            ],
            [
              76.485213,
              18.382716
            ],
            [
              76.485211,
              18.382535
            ],
            [
              76.484832,
              18.382448
            ],
            [
              76.485017,
              18.381995
            ],
            [
              76.485206,
              18.381993
            ],
            [
              76.485205,
              18.381812
            ],
            [
              76.485299,
              18.381812
            ],
            [
              76.485203,
              18.381632
            ],
            [
              76.485486,
              18.381449
            ],
            [
              76.485484,
              18.381268
            ],
            [
              76.485673,
              18.381267
            ],
            [
              76.485861,
              18.381084
            ],
            [
              76.485859,
              18.380813
            ],
            [
              76.486049,
              18.380902
            ],
            [
              76.486331,
              18.380719
            ],
            [
              76.48633,
              18.380539
            ],
            [
              76.48614,
              18.38054
            ],
            [
              76.48614,
              18.38045
            ],
            [
              76.485761,
              18.380453
            ],
            [
              76.485947,
              18.38009
            ],
            [
              76.485662,
              18.379911
            ],
            [
              76.48566,
              18.379731
            ],
            [
              76.486039,
              18.379818
            ],
            [
              76.486042,
              18.380089
            ],
            [
              76.486421,
              18.380176
            ],
            [
              76.486612,
              18.380356
            ],
            [
              76.486519,
              18.380537
            ],
            [
              76.486709,
              18.380626
            ],
            [
              76.48662,
              18.381259
            ],
            [
              76.486525,
              18.38126
            ],
            [
              76.486716,
              18.381439
            ],
            [
              76.486727,
              18.382704
            ],
            [
              76.486631,
              18.382614
            ],
            [
              76.486443,
              18.382706
            ],
            [
              76.486541,
              18.383067
            ],
            [
              76.486446,
              18.383068
            ]
          ],
          [
            [
              76.48597,
              18.38271
            ],
            [
              76.486159,
              18.382709
            ],
            [
              76.486062,
              18.382438
            ],
            [
              76.485967,
              18.382439
            ],
            [
              76.48597,
              18.38271
            ]
          ],
          [
            [
              76.485306,
              18.382625
            ],
            [
              76.485401,
              18.382624
            ],
            [
              76.4854,
              18.382534
            ],
            [
              76.485306,
              18.382534
            ],
            [
              76.485306,
              18.382625
            ]
          ],
          [
            [
              76.486433,
              18.381532
            ],
            [
              76.486527,
              18.381531
            ],
            [
              76.486527,
              18.381441
            ],
            [
              76.486432,
              18.381441
            ],
            [
              76.486433,
              18.381532
            ]
          ]
        ]
      }
    },
    {
      "type": "Feature",
      "properties": {
        "id": "P009",
        "refAreaHa": 3.24
      },
      "geometry": {
        "type": "Polygon",
        "coordinates": [
          [
            [
              76.610814,
              18.465542
            ],
            [
              76.610812,
              18.465271
            ],
            [
              76.610623,
              18.465273
            ],
            [
              76.610334,
              18.464823
            ],
            [
              76.610038,
              18.463561
            ],
            [
              76.609944,
              18.463562
            ],
            [
              76.60994,
              18.4632
            ],
            [
              76.609846,
              18.463201
            ],
            [
              76.609747,
              18.46275
            ],
            [
              76.609652,
              18.462751
            ],
            [
              76.609454,
              18.461849
            ],
            [
              76.609264,
              18.46176
            ],
            [
              76.609067,
              18.460949
            ],
            [
              76.608878,
              18.460951
            ],
            [
              76.608875,
              18.460589
            ],
            [
              76.608684,
              18.4605
            ],
            [
              76.608682,
              18.460229
            ],
            [
              76.608394,
              18.45987
            ],
            [
              76.608392,
              18.459599
            ],
            [
              76.608202,
              18.459511
            ],
            [
              76.608198,
              18.459059
            ],
            [
              76.608008,
              18.459061
            ],
            [
              76.608007,
              18.45888
            ],
            [
              76.607912,
              18.458881
            ],
            [
              76.608004,
              18.458609
            ],
            [
              76.607622,
              18.458251
            ],
            [
              76.607619,
              18.45798
            ],
            [
              76.607429,
              18.457891
            ],
            [
              76.607617,
              18.457709
            ],
            [
              76.607902,
              18.457796
            ],
            [
              76.607903,
              18.457977
            ],
            [
              76.608094,
              18.458156
            ],
            [
              76.608098,
              18.458518
            ],
            [
              76.608289,
              18.458697
            ],
            [
              76.608291,
              18.458968
            ],
            [
              76.608386,
              18.458967
            ],
            [
              76.60858,
              18.459507
            ],
            [
              76.608771,
              18.459596
            ],
            [
              76.60887,
              18.460137
            ],
            [
              76.60935,
              18.460856
            ],
            [
              76.609353,
              18.461127
            ],
            [
              76.609543,
              18.461216
            ],
            [
              76.609547,
              18.461668
            ],
            [
              76.609738,
              18.461756
            ],
            [
              76.60974,
              18.462027
            ],
            [
              76.60993,
              18.462116
            ],
            [
              76.609934,
              18.462478
            ],
            [
              76.610124,
              18.462566
            ],
            [
              76.610421,
              18.463919
            ],
            [
              76.610515,
              18.463918
            ],
            [
              76.610615,
              18.46446
            ],
            [
              76.61071,
              18.464459
            ],
            [
              76.610712,
              18.46473
            ],
            [
              76.610903,
              18.464909
            ],
            [
              76.610909,
              18.465541
            ],
            [
              76.610814,
              18.465542
            ]
          ]
        ]
      }
    },
    {
      "type": "Feature",
      "properties": {
        "id": "P010",
        "refAreaHa": 2.85
      },
      "geometry": {
        "type": "Polygon",
        "coordinates": [
          [
            [
              76.488505,
              18.369408
            ],
            [
              76.488409,
              18.369228
            ],
            [
              76.488125,
              18.36923
            ],
            [
              76.488124,
              18.369049
            ],
            [
              76.487935,
              18.369141
            ],
            [
              76.487738,
              18.368149
            ],
            [
              76.488395,
              18.367511
            ],
            [
              76.488295,
              18.366969
            ],
            [
              76.488957,
              18.366874
            ],
            [
              76.488958,
              18.366964
            ],
            [
              76.489527,
              18.367141
            ],
            [
              76.489624,
              18.367411
            ],
            [
              76.489342,
              18.367684
            ],
            [
              76.489345,
              18.367955
            ],
            [
              76.488872,
              18.367959
            ],
            [
              76.488875,
              18.36832
            ],
            [
              76.489066,
              18.3685
            ],
            [
              76.489067,
              18.36868
            ],
            [
              76.488972,
              18.368681
            ],
            [
              76.488974,
              18.368862
            ],
            [
              76.488785,
              18.368863
            ],
            [
              76.488594,
              18.368684
            ],
            [
              76.488693,
              18.369225
            ],
            [
              76.488505,
              18.369408
            ]
          ]
        ]
      }
    },
    {
      "type": "Feature",
      "properties": {
        "id": "P011",
        "refAreaHa": 2.73
      },
      "geometry": {
        "type": "Polygon",
        "coordinates": [
          [
            [
              76.500992,
              18.477919
            ],
            [
              76.500706,
              18.477741
            ],
            [
              76.500138,
              18.477745
            ],
            [
              76.500042,
              18.477565
            ],
            [
              76.499569,
              18.477569
            ],
            [
              76.499378,
              18.47739
            ],
            [
              76.498714,
              18.477305
            ],
            [
              76.498713,
              18.477214
            ],
            [
              76.497955,
              18.47713
            ],
            [
              76.497669,
              18.476861
            ],
            [
              76.497194,
              18.476775
            ],
            [
              76.497003,
              18.476505
            ],
            [
              76.496623,
              18.476418
            ],
            [
              76.496431,
              18.476058
            ],
            [
              76.496147,
              18.47606
            ],
            [
              76.49605,
              18.47588
            ],
            [
              76.495861,
              18.475881
            ],
            [
              76.495858,
              18.47552
            ],
            [
              76.496143,
              18.475608
            ],
            [
              76.496239,
              18.475788
            ],
            [
              76.496428,
              18.475787
            ],
            [
              76.496525,
              18.475967
            ],
            [
              76.496714,
              18.475965
            ],
            [
              76.49681,
              18.476145
            ],
            [
              76.497094,
              18.476143
            ],
            [
              76.49719,
              18.476323
            ],
            [
              76.498045,
              18.476587
            ],
            [
              76.498141,
              18.476767
            ],
            [
              76.500703,
              18.477289
            ],
            [
              76.500703,
              18.477379
            ],
            [
              76.501272,
              18.477465
            ],
            [
              76.501273,
              18.477555
            ],
            [
              76.501652,
              18.477552
            ],
            [
              76.501653,
              18.477733
            ],
            [
              76.501369,
              18.477735
            ],
            [
              76.501371,
              18.477916
            ],
            [
              76.500992,
              18.477919
            ]
          ]
        ]
      }
    },
    {
      "type": "Feature",
      "properties": {
        "id": "P012",
        "refAreaHa": 1.93
      },
      "geometry": {
        "type": "Polygon",
        "coordinates": [
          [
            [
              76.517984,
              18.471911
            ],
            [
              76.517792,
              18.471641
            ],
            [
              76.517224,
              18.471646
            ],
            [
              76.517224,
              18.471555
            ],
            [
              76.516655,
              18.471469
            ],
            [
              76.516464,
              18.47129
            ],
            [
              76.51618,
              18.471292
            ],
            [
              76.516083,
              18.471113
            ],
            [
              76.515039,
              18.47085
            ],
            [
              76.514849,
              18.470671
            ],
            [
              76.514185,
              18.470586
            ],
            [
              76.513897,
              18.470136
            ],
            [
              76.514276,
              18.470133
            ],
            [
              76.514467,
              18.470312
            ],
            [
              76.51513,
              18.470397
            ],
            [
              76.515606,
              18.470665
            ],
            [
              76.515985,
              18.470662
            ],
            [
              76.515985,
              18.470752
            ],
            [
              76.516175,
              18.47075
            ],
            [
              76.516556,
              18.471018
            ],
            [
              76.51684,
              18.471016
            ],
            [
              76.517221,
              18.471284
            ],
            [
              76.51779,
              18.47137
            ],
            [
              76.518361,
              18.471727
            ],
            [
              76.518551,
              18.471725
            ],
            [
              76.518552,
              18.471906
            ],
            [
              76.517984,
              18.471911
            ]
          ]
        ]
      }
    },
    {
      "type": "Feature",
      "properties": {
        "id": "P013",
        "refAreaHa": 1.76
      },
      "geometry": {
        "type": "Polygon",
        "coordinates": [
          [
            [
              76.486153,
              18.481108
            ],
            [
              76.48615,
              18.480837
            ],
            [
              76.486431,
              18.480474
            ],
            [
              76.486429,
              18.480203
            ],
            [
              76.48671,
              18.479839
            ],
            [
              76.486708,
              18.479658
            ],
            [
              76.486897,
              18.479566
            ],
            [
              76.486895,
              18.479295
            ],
            [
              76.487083,
              18.479203
            ],
            [
              76.487175,
              18.478841
            ],
            [
              76.487269,
              18.478841
            ],
            [
              76.487267,
              18.47857
            ],
            [
              76.487549,
              18.478296
            ],
            [
              76.487546,
              18.478025
            ],
            [
              76.487734,
              18.477843
            ],
            [
              76.487732,
              18.477572
            ],
            [
              76.488013,
              18.477208
            ],
            [
              76.488104,
              18.476756
            ],
            [
              76.488668,
              18.4763
            ],
            [
              76.488672,
              18.476751
            ],
            [
              76.488298,
              18.477296
            ],
            [
              76.488207,
              18.477749
            ],
            [
              76.488018,
              18.477841
            ],
            [
              76.488021,
              18.478112
            ],
            [
              76.48755,
              18.478387
            ],
            [
              76.487272,
              18.479112
            ],
            [
              76.487084,
              18.479294
            ],
            [
              76.486995,
              18.479927
            ],
            [
              76.486714,
              18.480291
            ],
            [
              76.486717,
              18.480652
            ],
            [
              76.486529,
              18.480834
            ],
            [
              76.486531,
              18.481105
            ],
            [
              76.486153,
              18.481108
            ]
          ]
        ]
      }
    },
    {
      "type": "Feature",
      "properties": {
        "id": "P014",
        "refAreaHa": 1.6
      },
      "geometry": {
        "type": "Polygon",
        "coordinates": [
          [
            [
              76.48429,
              18.374501
            ],
            [
              76.48429,
              18.37441
            ],
            [
              76.484006,
              18.374412
            ],
            [
              76.484004,
              18.374232
            ],
            [
              76.48391,
              18.374232
            ],
            [
              76.483999,
              18.373599
            ],
            [
              76.484186,
              18.373327
            ],
            [
              76.484183,
              18.373056
            ],
            [
              76.484278,
              18.373055
            ],
            [
              76.484367,
              18.372422
            ],
            [
              76.484934,
              18.372327
            ],
            [
              76.485125,
              18.372506
            ],
            [
              76.485035,
              18.373049
            ],
            [
              76.484941,
              18.37305
            ],
            [
              76.484942,
              18.37323
            ],
            [
              76.484563,
              18.373143
            ],
            [
              76.484469,
              18.373234
            ],
            [
              76.48447,
              18.373415
            ],
            [
              76.484756,
              18.373593
            ],
            [
              76.484759,
              18.373955
            ],
            [
              76.484664,
              18.373955
            ],
            [
              76.484667,
              18.374226
            ],
            [
              76.48429,
              18.374501
            ]
          ]
        ]
      }
    },
    {
      "type": "Feature",
      "properties": {
        "id": "P015",
        "refAreaHa": 1.42
      },
      "geometry": {
        "type": "Polygon",
        "coordinates": [
          [
            [
              76.4844,
              18.376216
            ],
            [
              76.484301,
              18.375765
            ],
            [
              76.483638,
              18.37568
            ],
            [
              76.48354,
              18.375229
            ],
            [
              76.4842,
              18.375043
            ],
            [
              76.484391,
              18.375223
            ],
            [
              76.484301,
              18.375675
            ],
            [
              76.484395,
              18.375674
            ],
            [
              76.484393,
              18.375403
            ],
            [
              76.484864,
              18.375129
            ],
            [
              76.485053,
              18.375127
            ],
            [
              76.485149,
              18.375307
            ],
            [
              76.485528,
              18.375304
            ],
            [
              76.48553,
              18.375575
            ],
            [
              76.485058,
              18.375669
            ],
            [
              76.484872,
              18.376122
            ],
            [
              76.4844,
              18.376216
            ]
          ]
        ]
      }
    },
    {
      "type": "Feature",
      "properties": {
        "id": "P016",
        "refAreaHa": 1.36
      },
      "geometry": {
        "type": "Polygon",
        "coordinates": [
          [
            [
              76.50816,
              18.355157
            ],
            [
              76.508064,
              18.354977
            ],
            [
              76.50778,
              18.354979
            ],
            [
              76.507493,
              18.35462
            ],
            [
              76.507209,
              18.354532
            ],
            [
              76.507207,
              18.354351
            ],
            [
              76.507396,
              18.35435
            ],
            [
              76.507393,
              18.353988
            ],
            [
              76.508244,
              18.353891
            ],
            [
              76.508246,
              18.354072
            ],
            [
              76.508626,
              18.35434
            ],
            [
              76.508537,
              18.354973
            ],
            [
              76.50835,
              18.355156
            ],
            [
              76.50816,
              18.355157
            ]
          ]
        ]
      }
    },
    {
      "type": "Feature",
      "properties": {
        "id": "P017",
        "refAreaHa": 1.27
      },
      "geometry": {
        "type": "Polygon",
        "coordinates": [
          [
            [
              76.601715,
              18.454325
            ],
            [
              76.601714,
              18.454144
            ],
            [
              76.602186,
              18.45405
            ],
            [
              76.602374,
              18.453868
            ],
            [
              76.602847,
              18.453864
            ],
            [
              76.602846,
              18.453773
            ],
            [
              76.60417,
              18.453581
            ],
            [
              76.604169,
              18.453491
            ],
            [
              76.605117,
              18.453573
            ],
            [
              76.605118,
              18.453754
            ],
            [
              76.605308,
              18.453753
            ],
            [
              76.605216,
              18.454024
            ],
            [
              76.60512,
              18.453935
            ],
            [
              76.604458,
              18.454031
            ],
            [
              76.604457,
              18.45394
            ],
            [
              76.603985,
              18.454035
            ],
            [
              76.603984,
              18.453944
            ],
            [
              76.603605,
              18.453948
            ],
            [
              76.603606,
              18.454038
            ],
            [
              76.603132,
              18.453952
            ],
            [
              76.603133,
              18.454042
            ],
            [
              76.602754,
              18.454045
            ],
            [
              76.602755,
              18.454136
            ],
            [
              76.601998,
              18.454142
            ],
            [
              76.601905,
              18.454323
            ],
            [
              76.601715,
              18.454325
            ]
          ]
        ]
      }
    },
    {
      "type": "Feature",
      "properties": {
        "id": "P018",
        "refAreaHa": 1.2
      },
      "geometry": {
        "type": "Polygon",
        "coordinates": [
          [
            [
              76.476485,
              18.358116
            ],
            [
              76.476483,
              18.357845
            ],
            [
              76.476956,
              18.357841
            ],
            [
              76.476955,
              18.357751
            ],
            [
              76.479226,
              18.357643
            ],
            [
              76.479229,
              18.358095
            ],
            [
              76.476485,
              18.358116
            ]
          ]
        ]
      }
    }
  ]
}